{
    "res": [
        {
            "street_address": "2841 DEBARR RD",
            "city": "ANCHORAGE",
            "state": "AK",
            "zip": "99508"
        },
        {
            "street_address": "2741 DEBARR RD STE C415",
            "city": "ANCHORAGE",
            "state": "AK",
            "zip": "99508"
        },
        {
            "street_address": "3340 PROVIDENCE DR",
            "city": "ANCHORAGE",
            "state": "AK",
            "zip": "99508"
        },
        {
            "street_address": "2741 DEBARR RD",
            "city": "ANCHORAGE",
            "state": "AK",
            "zip": "99508"
        },
        {
            "street_address": "3909 ARTIC BLVD STE 404",
            "city": "ANCHORAGE",
            "state": "AK",
            "zip": "99503"
        },
        {
            "street_address": "2741 DEBARR RD",
            "city": "ANCHORAGE",
            "state": "AK",
            "zip": "99508"
        },
        {
            "street_address": "3851 PIPER ST STE U230",
            "city": "ANCHORAGE",
            "state": "AK",
            "zip": "99508"
        },
        {
            "street_address": "2801 DEBARR RD",
            "city": "ANCHORAGE",
            "state": "AK",
            "zip": "99508"
        },
        {
            "street_address": "1917 ABBOTT RD",
            "city": "ANCHORAGE",
            "state": "AK",
            "zip": "99507"
        },
        {
            "street_address": "3220 PROVIDENCE DR",
            "city": "ANCHORAGE",
            "state": "AK",
            "zip": "99508"
        },
        {
            "street_address": "104 EAST FAIRVIEW AVE",
            "city": "HOMER",
            "state": "AK",
            "zip": "99603"
        },
        {
            "street_address": "1305 21ST AVE",
            "city": "FAIRBANKS",
            "state": "AK",
            "zip": "99701"
        },
        {
            "street_address": "4001 LAUREL ST STE 205",
            "city": "ANCHORAGE",
            "state": "AK",
            "zip": "99508"
        },
        {
            "street_address": "4001 LAUREL ST",
            "city": "ANCHORAGE",
            "state": "AK",
            "zip": "99508"
        },
        {
            "street_address": "3909 ARCTIC BLVD",
            "city": "ANCHORAGE",
            "state": "AK",
            "zip": "99503"
        },
        {
            "street_address": "3419 AIRPORT WAY STE B",
            "city": "FAIRBANKS",
            "state": "AK",
            "zip": "99709"
        },
        {
            "street_address": "1200 AIRPORT HEIGHTS DR",
            "city": "ANCHORAGE",
            "state": "AK",
            "zip": "99508"
        },
        {
            "street_address": "3300 PROVIDENCE DR",
            "city": "ANCHORAGE",
            "state": "AK",
            "zip": "99508"
        },
        {
            "street_address": "3066 E MERIDIAN PARK LOOP",
            "city": "WASILLA",
            "state": "AK",
            "zip": "99654"
        },
        {
            "street_address": "1650 COWLES STREET",
            "city": "FAIRBANKS",
            "state": "AK",
            "zip": "99701"
        },
        {
            "street_address": "8700 BEVERLY BLVD",
            "city": "WEST HOLLYWOOD",
            "state": "CA",
            "zip": "90048"
        },
        {
            "street_address": "1613 N MCKENZIE ST",
            "city": "FOLEY",
            "state": "AL",
            "zip": "36535"
        },
        {
            "street_address": "300 N AIRPORT RD STE 2",
            "city": "JASPER",
            "state": "AL",
            "zip": "35504"
        },
        {
            "street_address": "1751 VETERANS DR STE 125",
            "city": "FLORENCE",
            "state": "AL",
            "zip": "35630"
        },
        {
            "street_address": "121 N 20TH ST",
            "city": "OPELIKA",
            "state": "AL",
            "zip": "36801"
        },
        {
            "street_address": "1722 PINE STREET",
            "city": "MONTGOMERY",
            "state": "AL",
            "zip": "36106"
        },
        {
            "street_address": "1120 S JACKSON HWY STE 203",
            "city": "SHEFFIELD",
            "state": "AL",
            "zip": "35660"
        },
        {
            "street_address": "65 CHARLTON PL",
            "city": "DEATSVILLE",
            "state": "AL",
            "zip": "36022"
        },
        {
            "street_address": "840 MONTCLAIR RD",
            "city": "BIRMINGHAM",
            "state": "AL",
            "zip": "35213"
        },
        {
            "street_address": "2451 UNIVERSITY HOSPITAL DR RM 714",
            "city": "MOBILE",
            "state": "AL",
            "zip": "36617"
        },
        {
            "street_address": "705 BANK ST NE",
            "city": "DECATUR",
            "state": "AL",
            "zip": "35601"
        },
        {
            "street_address": "250 CHATEAU DR SW STE 105",
            "city": "HUNTSVILLE",
            "state": "AL",
            "zip": "35801"
        },
        {
            "street_address": "4749 BERRY BLVD",
            "city": "MONTGOMERY",
            "state": "AL",
            "zip": "36106"
        },
        {
            "street_address": "1004 1ST ST N",
            "city": "ALABASTER",
            "state": "AL",
            "zip": "35007"
        },
        {
            "street_address": "2104 CHESTNUT ST",
            "city": "MONTGOMERY",
            "state": "AL",
            "zip": "36106"
        },
        {
            "street_address": "4721 CHACE CIR",
            "city": "HOOVER",
            "state": "AL",
            "zip": "35244"
        },
        {
            "street_address": "1106 N CAVE ST",
            "city": "TUSCUMBIA",
            "state": "AL",
            "zip": "35674"
        },
        {
            "street_address": "105 HWY 80 EAST",
            "city": "DEMOPOLIS",
            "state": "AL",
            "zip": "36732"
        },
        {
            "street_address": "1601 CENTER ST",
            "city": "MOBILE",
            "state": "AL",
            "zip": "36604"
        },
        {
            "street_address": "1801 PINE ST",
            "city": "MONTGOMERY",
            "state": "AL",
            "zip": "36106"
        },
        {
            "street_address": "620 W GROVE ST STE 201",
            "city": "EL DORADO",
            "state": "AR",
            "zip": "71730"
        },
        {
            "street_address": "500 S UNIVERSITY AVE",
            "city": "LITTLE ROCK",
            "state": "AR",
            "zip": "72205"
        },
        {
            "street_address": "2500 N STATE ST",
            "city": "JACKSON",
            "state": "MS",
            "zip": "39216"
        },
        {
            "street_address": "880 W MAIN ST",
            "city": "BOONEVILLE",
            "state": "AR",
            "zip": "72927"
        },
        {
            "street_address": "800 S CHURCH ST STE 201",
            "city": "JONESBORO",
            "state": "AR",
            "zip": "72401"
        },
        {
            "street_address": "1500 DODSON AVE",
            "city": "FORT SMITH",
            "state": "AR",
            "zip": "72901"
        },
        {
            "street_address": "114 INDEPENDENCE DR",
            "city": "CHESTNUT HILL",
            "state": "MA",
            "zip": "02467"
        },
        {
            "street_address": "501 VIRGINIA DR",
            "city": "BATESVILLE",
            "state": "AR",
            "zip": "72501"
        },
        {
            "street_address": "1000 W KINGSHIGHWAY",
            "city": "PARAGOULD",
            "state": "AR",
            "zip": "72450"
        },
        {
            "street_address": "724 DEAVER ST",
            "city": "SPRINGDALE",
            "state": "AR",
            "zip": "72764"
        },
        {
            "street_address": "1005 E MATTHEWS AVE",
            "city": "JONESBORO",
            "state": "AR",
            "zip": "72401"
        },
        {
            "street_address": "14543 GLOBAL PKWY STE 1102ND",
            "city": "FORT MYERS",
            "state": "FL",
            "zip": "33913"
        },
        {
            "street_address": "1100 MEDICAL DRIVE",
            "city": "BLYTHEVILLE",
            "state": "AR",
            "zip": "72315"
        },
        {
            "street_address": "1000 W KINGSHIGHWAY",
            "city": "PARAGOULD",
            "state": "AR",
            "zip": "72450"
        },
        {
            "street_address": "3015 E JOYCE BLVD",
            "city": "FAYETTEVILLE",
            "state": "AR",
            "zip": "72703"
        },
        {
            "street_address": "100 E 20TH ST",
            "city": "HOPE",
            "state": "AR",
            "zip": "71801"
        },
        {
            "street_address": "525 WESTERN AVE STE 203",
            "city": "CONWAY",
            "state": "AR",
            "zip": "72034"
        },
        {
            "street_address": "500 S UNIVERSITY AVE",
            "city": "LITTLE ROCK",
            "state": "AR",
            "zip": "72205"
        },
        {
            "street_address": "9601 BAPTIST HEALTH DR STE 990",
            "city": "LITTLE ROCK",
            "state": "AR",
            "zip": "72205"
        },
        {
            "street_address": "10915 N RODNEY PARHAM RD STE G",
            "city": "LITTLE ROCK",
            "state": "AR",
            "zip": "72212"
        },
        {
            "street_address": "5171 CUB LAKE RD",
            "city": "SHOW LOW",
            "state": "AZ",
            "zip": "85901"
        },
        {
            "street_address": "1501 N CAMPBELL AVE RM 5301",
            "city": "TUCSON",
            "state": "AZ",
            "zip": "85724"
        },
        {
            "street_address": "3329 E BELL RD STE A2-A5",
            "city": "PHOENIX",
            "state": "AZ",
            "zip": "85032"
        },
        {
            "street_address": "16601 N 40TH ST STE 227",
            "city": "PHOENIX",
            "state": "AZ",
            "zip": "85032"
        },
        {
            "street_address": "3269 N STOCKTON HILL RD",
            "city": "KINGMAN",
            "state": "AZ",
            "zip": "86409"
        },
        {
            "street_address": "1400 VFW PKWY",
            "city": "WEST ROXBURY",
            "state": "MA",
            "zip": "02132"
        },
        {
            "street_address": "1100 E MONROE ST",
            "city": "GLOBE",
            "state": "AZ",
            "zip": "85501"
        },
        {
            "street_address": "1310 N 24TH ST STE 100",
            "city": "PHOENIX",
            "state": "AZ",
            "zip": "85008"
        },
        {
            "street_address": "2946 E. BANNER GATEWAY DR.",
            "city": "GILBERT",
            "state": "AZ",
            "zip": "85234"
        },
        {
            "street_address": "CORNER OF ROUTE N12 AND N7",
            "city": "FORT DEFIANCE",
            "state": "AZ",
            "zip": "86504"
        },
        {
            "street_address": "13677 W MCDOWELL RD",
            "city": "GOODYEAR",
            "state": "AZ",
            "zip": "85395"
        },
        {
            "street_address": "5333 N 7TH ST",
            "city": "PHOENIX",
            "state": "AZ",
            "zip": "85014"
        },
        {
            "street_address": "33400 N 32ND AVE",
            "city": "PHOENIX",
            "state": "AZ",
            "zip": "85085"
        },
        {
            "street_address": "1951 N WILMOT RD",
            "city": "TUCSON",
            "state": "AZ",
            "zip": "85712"
        },
        {
            "street_address": "13840 N NORTHSIGHT BLVD",
            "city": "SCOTTSDALE",
            "state": "AZ",
            "zip": "85260"
        },
        {
            "street_address": "1501 N CAMPBELL AVE",
            "city": "TUCSON",
            "state": "AZ",
            "zip": "85724"
        },
        {
            "street_address": "4838 E BASELINE RD",
            "city": "MESA",
            "state": "AZ",
            "zip": "85206"
        },
        {
            "street_address": "2005 HWY 60",
            "city": "GLOBE",
            "state": "AZ",
            "zip": "85501"
        },
        {
            "street_address": "1690 W SOUTHERN AVE",
            "city": "APACHE JUNCTION",
            "state": "AZ",
            "zip": "85120"
        },
        {
            "street_address": "4838 E BASELINE RD",
            "city": "MESA",
            "state": "AZ",
            "zip": "85206"
        },
        {
            "street_address": "1234 W CHAPMAN AVE",
            "city": "ORANGE",
            "state": "CA",
            "zip": "92868"
        },
        {
            "street_address": "212 N SAN MATEO DR",
            "city": "SAN MATEO",
            "state": "CA",
            "zip": "94401"
        },
        {
            "street_address": "1000 S ANAHEIM BLVD STE 200",
            "city": "ANAHEIM",
            "state": "CA",
            "zip": "92805"
        },
        {
            "street_address": "1550 E WASHINGTON ST STE 101",
            "city": "COLTON",
            "state": "CA",
            "zip": "92324"
        },
        {
            "street_address": "3300 WEBSTER STREET",
            "city": "OAKLAND",
            "state": "CA",
            "zip": "94609"
        },
        {
            "street_address": "7910 DOWNING AVENUE SUITE 100",
            "city": "BAKERSFIELD",
            "state": "CA",
            "zip": "93308"
        },
        {
            "street_address": "450 STABLERIDGE ST",
            "city": "EL CAJON",
            "state": "CA",
            "zip": "92019"
        },
        {
            "street_address": "1818 N ORANGE GROVE AVE STE 300",
            "city": "POMONA",
            "state": "CA",
            "zip": "91767"
        },
        {
            "street_address": "300 PASTEUR DR",
            "city": "STANFORD",
            "state": "CA",
            "zip": "94305"
        },
        {
            "street_address": "1411 E 31ST ST",
            "city": "OAKLAND",
            "state": "CA",
            "zip": "94602"
        },
        {
            "street_address": "14850 LOS GATOS BLVD",
            "city": "LOS GATOS",
            "state": "CA",
            "zip": "95032"
        },
        {
            "street_address": "18800 DELAWARE ST STE 550",
            "city": "HUNTINGTON BEACH",
            "state": "CA",
            "zip": "92648"
        },
        {
            "street_address": "12021 WILSHIRE BLVD # 745",
            "city": "LOS ANGELES",
            "state": "CA",
            "zip": "90025"
        },
        {
            "street_address": "200 W ARBOR DR",
            "city": "SAN DIEGO",
            "state": "CA",
            "zip": "92103"
        },
        {
            "street_address": "7930 FROST ST STE 204",
            "city": "SAN DIEGO",
            "state": "CA",
            "zip": "92123"
        },
        {
            "street_address": "757 WESTWOOD PLAZA",
            "city": "LOS ANGELES",
            "state": "CA",
            "zip": "90095"
        },
        {
            "street_address": "44444 20TH ST W",
            "city": "LANCASTER",
            "state": "CA",
            "zip": "93534"
        },
        {
            "street_address": "612 W DUARTE RD STE 804",
            "city": "ARCADIA",
            "state": "CA",
            "zip": "91007"
        },
        {
            "street_address": "8700 BEVERLY BLVD",
            "city": "WEST HOLLYWOOD",
            "state": "CA",
            "zip": "90048"
        },
        {
            "street_address": "222 W EULALIA ST",
            "city": "GLENDALE",
            "state": "CA",
            "zip": "91204"
        },
        {
            "street_address": "5901 CORPORATE DR",
            "city": "COLORADO SPRINGS",
            "state": "CO",
            "zip": "80919"
        },
        {
            "street_address": "11150 HURON ST STE 212",
            "city": "NORTHGLENN",
            "state": "CO",
            "zip": "80234"
        },
        {
            "street_address": "13001 E 17TH PL",
            "city": "AURORA",
            "state": "CO",
            "zip": "80045"
        },
        {
            "street_address": "13123 E 16TH AVE",
            "city": "AURORA",
            "state": "CO",
            "zip": "80045"
        },
        {
            "street_address": "1001 WELLINGTON AVE",
            "city": "GRAND JUNCTION",
            "state": "CO",
            "zip": "81501"
        },
        {
            "street_address": "14300 ORCHARD PARKWAY SUITE #200",
            "city": "WESTMINSTER,",
            "state": "CO",
            "zip": "80023"
        },
        {
            "street_address": "7700 S BROADWAY",
            "city": "LITTLETON",
            "state": "CO",
            "zip": "80122"
        },
        {
            "street_address": "9191 GRANT ST",
            "city": "THORNTON",
            "state": "CO",
            "zip": "80229"
        },
        {
            "street_address": "13123 E 16TH AVE",
            "city": "AURORA",
            "state": "CO",
            "zip": "80045"
        },
        {
            "street_address": "1721 E 19TH AVE",
            "city": "DENVER",
            "state": "CO",
            "zip": "80218"
        },
        {
            "street_address": "12631 E 17TH AVE RM 6602",
            "city": "AURORA",
            "state": "CO",
            "zip": "80045"
        },
        {
            "street_address": "5401 OLD YORK RD # KLEIN101",
            "city": "PHILADELPHIA",
            "state": "PA",
            "zip": "19141"
        },
        {
            "street_address": "12605 E 16TH AVE",
            "city": "AURORA",
            "state": "CO",
            "zip": "80045"
        },
        {
            "street_address": "1650 COCHRANE CIR UNIT MEDDAC",
            "city": "FORT CARSON",
            "state": "CO",
            "zip": "80913"
        },
        {
            "street_address": "12605 E 16TH AVE",
            "city": "AURORA",
            "state": "CO",
            "zip": "80045"
        },
        {
            "street_address": "12605 E 16TH AVE",
            "city": "AURORA",
            "state": "CO",
            "zip": "80045"
        },
        {
            "street_address": "1375 E 19TH AVE",
            "city": "DENVER",
            "state": "CO",
            "zip": "80218"
        },
        {
            "street_address": "12605 E 16TH AVE",
            "city": "AURORA",
            "state": "CO",
            "zip": "80045"
        },
        {
            "street_address": "2045 N FRANKLIN ST",
            "city": "DENVER",
            "state": "CO",
            "zip": "80205"
        },
        {
            "street_address": "12 VAIL RD",
            "city": "VAIL",
            "state": "CO",
            "zip": "81657"
        },
        {
            "street_address": "800 HOWARD AVE",
            "city": "NEW HAVEN",
            "state": "CT",
            "zip": "06519"
        },
        {
            "street_address": "5841 S MARYLAND AVE # MC6040",
            "city": "CHICAGO",
            "state": "IL",
            "zip": "60637"
        },
        {
            "street_address": "200 S ENOTA DR NE",
            "city": "GAINESVILLE",
            "state": "GA",
            "zip": "30501"
        },
        {
            "street_address": "25 NEWELL RD",
            "city": "BRISTOL",
            "state": "CT",
            "zip": "06010"
        },
        {
            "street_address": "32 STRAWBERRY HILL CT",
            "city": "STAMFORD",
            "state": "CT",
            "zip": "06902"
        },
        {
            "street_address": "107 NEWTOWN RD",
            "city": "DANBURY",
            "state": "CT",
            "zip": "06810"
        },
        {
            "street_address": "595 MAIN ST",
            "city": "PORTLAND",
            "state": "CT",
            "zip": "06480"
        },
        {
            "street_address": "877 JEFFERSON AVE",
            "city": "MEMPHIS",
            "state": "TN",
            "zip": "38103"
        },
        {
            "street_address": "18300 KATY FWY STE 325",
            "city": "HOUSTON",
            "state": "TX",
            "zip": "77094"
        },
        {
            "street_address": "29 GRAVEL ST",
            "city": "MYSTIC",
            "state": "CT",
            "zip": "06355"
        },
        {
            "street_address": "800 HOWARD AVE",
            "city": "NEW HAVEN",
            "state": "CT",
            "zip": "06519"
        },
        {
            "street_address": "201 CHESTNUT HILL RD",
            "city": "STAFFORD SPRINGS",
            "state": "CT",
            "zip": "06076"
        },
        {
            "street_address": "56 FRANKLIN ST",
            "city": "WATERBURY",
            "state": "CT",
            "zip": "06706"
        },
        {
            "street_address": "435 LEWIS AVE",
            "city": "MERIDEN",
            "state": "CT",
            "zip": "06451"
        },
        {
            "street_address": "3601 SW 160TH AVENUE",
            "city": "MIRAMAR",
            "state": "FL",
            "zip": "33027"
        },
        {
            "street_address": "115 SPENCER ST",
            "city": "WINSTED",
            "state": "CT",
            "zip": "06098"
        },
        {
            "street_address": "33 MILLER ST",
            "city": "FAIRFIELD",
            "state": "CT",
            "zip": "06824"
        },
        {
            "street_address": "455 LEWIS AVE",
            "city": "MERIDEN",
            "state": "CT",
            "zip": "06451"
        },
        {
            "street_address": "3601 THE VANDERBILT CLINIC",
            "city": "NASHVILLE",
            "state": "TN",
            "zip": "37232"
        },
        {
            "street_address": "267 GRANT ST",
            "city": "BRIDGEPORT",
            "state": "CT",
            "zip": "06610"
        },
        {
            "street_address": "106 IRVING ST NW",
            "city": "WASHINGTON",
            "state": "DC",
            "zip": "20010"
        },
        {
            "street_address": "5255 LOUGHBORO RD NW",
            "city": "WASHINGTON",
            "state": "DC",
            "zip": "20016"
        },
        {
            "street_address": "2150 PENNSYLVANIA AVE NW",
            "city": "WASHINGTON",
            "state": "DC",
            "zip": "20037"
        },
        {
            "street_address": "2150 PENNSYLVANIA AVE NW",
            "city": "WASHINGTON",
            "state": "DC",
            "zip": "20037"
        },
        {
            "street_address": "2709 MEREDYTH DR STE 340",
            "city": "ALBANY",
            "state": "GA",
            "zip": "31707"
        },
        {
            "street_address": "110 IRVING ST NW STE 301",
            "city": "WASHINGTON",
            "state": "DC",
            "zip": "20010"
        },
        {
            "street_address": "106 IRVING ST NW",
            "city": "WASHINGTON",
            "state": "DC",
            "zip": "20010"
        },
        {
            "street_address": "1011 NEW HAMPSHIRE AV NW",
            "city": "WASHINGTON",
            "state": "DC",
            "zip": "20037"
        },
        {
            "street_address": "3800 RESERVOIR RD NW",
            "city": "WASHINGTON",
            "state": "DC",
            "zip": "20007"
        },
        {
            "street_address": "2150 PENNSYLVANIA AVENUE, NW",
            "city": "WASHINGTON",
            "state": "DC",
            "zip": "20037"
        },
        {
            "street_address": "1950 ARLINGTON ST STE 101",
            "city": "SARASOTA",
            "state": "FL",
            "zip": "34239"
        },
        {
            "street_address": "110 IRVING ST NW",
            "city": "WASHINGTON",
            "state": "DC",
            "zip": "20010"
        },
        {
            "street_address": "3800 RESERVOIR RD NW # PHC4",
            "city": "WASHINGTON",
            "state": "DC",
            "zip": "20007"
        },
        {
            "street_address": "25 N WINFIELD RD",
            "city": "WINFIELD",
            "state": "IL",
            "zip": "60190"
        },
        {
            "street_address": "110 IRVING ST NW",
            "city": "WASHINGTON",
            "state": "DC",
            "zip": "20010"
        },
        {
            "street_address": "3800 RESERVOIR RD NW",
            "city": "WASHINGTON",
            "state": "DC",
            "zip": "20007"
        },
        {
            "street_address": "6005 PARK AVE STE 1010B",
            "city": "MEMPHIS",
            "state": "TN",
            "zip": "38119"
        },
        {
            "street_address": "900 23RD ST NW",
            "city": "WASHINGTON",
            "state": "DC",
            "zip": "20037"
        },
        {
            "street_address": "1140 VARNUM ST NE",
            "city": "WASHINGTON",
            "state": "DC",
            "zip": "20017"
        },
        {
            "street_address": "110 IRVING ST NW",
            "city": "WASHINGTON",
            "state": "DC",
            "zip": "20010"
        },
        {
            "street_address": "32711 LONG NECK RD",
            "city": "MILLSBORO",
            "state": "DE",
            "zip": "19966"
        },
        {
            "street_address": "4701 OGLETOWN STANTON RD",
            "city": "NEWARK",
            "state": "DE",
            "zip": "19713"
        },
        {
            "street_address": "4701 OGLETOWN STANTON RD",
            "city": "NEWARK",
            "state": "DE",
            "zip": "19713"
        },
        {
            "street_address": "2 READS WAY",
            "city": "NEW CASTLE",
            "state": "DE",
            "zip": "19720"
        },
        {
            "street_address": "73 GREENTREE DR",
            "city": "DOVER",
            "state": "DE",
            "zip": "19904"
        },
        {
            "street_address": "1401 FOULK RD",
            "city": "WILMINGTON",
            "state": "DE",
            "zip": "19803"
        },
        {
            "street_address": "1 SUSSEX AVE",
            "city": "MILFORD",
            "state": "DE",
            "zip": "19963"
        },
        {
            "street_address": "724 S NEW ST",
            "city": "DOVER",
            "state": "DE",
            "zip": "19904"
        },
        {
            "street_address": "200 BANNING ST",
            "city": "DOVER",
            "state": "DE",
            "zip": "19904"
        },
        {
            "street_address": "540 S GOVERNORS AVE STE 101A",
            "city": "DOVER",
            "state": "DE",
            "zip": "19904"
        },
        {
            "street_address": "9733 HEALTHWAY DR",
            "city": "BERLIN",
            "state": "MD",
            "zip": "21811"
        },
        {
            "street_address": "806 SEABURY AVE",
            "city": "MILFORD",
            "state": "DE",
            "zip": "19963"
        },
        {
            "street_address": "19409 PLANTATION RD STE 3",
            "city": "REHOBOTH BEACH",
            "state": "DE",
            "zip": "19971"
        },
        {
            "street_address": "200 BANNING ST",
            "city": "DOVER",
            "state": "DE",
            "zip": "19904"
        },
        {
            "street_address": "802 N DUPONT BLVD",
            "city": "MILFORD",
            "state": "DE",
            "zip": "19963"
        },
        {
            "street_address": "4701 OGLETOWN STANTON RD",
            "city": "NEWARK",
            "state": "DE",
            "zip": "19713"
        },
        {
            "street_address": "640 S STATE ST BLDG 742",
            "city": "DOVER",
            "state": "DE",
            "zip": "19901"
        },
        {
            "street_address": "3040 ROUTE 50",
            "city": "SARATOGA SPRINGS",
            "state": "NY",
            "zip": "12866"
        },
        {
            "street_address": "1515 SAVANNAH RD",
            "city": "LEWES",
            "state": "DE",
            "zip": "19958"
        },
        {
            "street_address": "4701 OGLETOWN STANTON RD",
            "city": "NEWARK",
            "state": "DE",
            "zip": "19713"
        },
        {
            "street_address": "720 DOCTORS DR",
            "city": "ENGLEWOOD",
            "state": "FL",
            "zip": "34223"
        },
        {
            "street_address": "18308 MURDOCK CIR",
            "city": "PORT CHARLOTTE",
            "state": "FL",
            "zip": "33948"
        },
        {
            "street_address": "1411 N FLAGLER DR",
            "city": "WEST PALM BEACH",
            "state": "FL",
            "zip": "33401"
        },
        {
            "street_address": "142 JOHN F KENNEDY DR",
            "city": "LAKE WORTH",
            "state": "FL",
            "zip": "33462"
        },
        {
            "street_address": "10141 FOREST HILL BLVD",
            "city": "WELLINGTON",
            "state": "FL",
            "zip": "33414"
        },
        {
            "street_address": "6405 N FEDERAL HWY",
            "city": "FORT LAUDERDALE",
            "state": "FL",
            "zip": "33308"
        },
        {
            "street_address": "142 JOHN F KENNEDY DR",
            "city": "LAKE WORTH",
            "state": "FL",
            "zip": "33462"
        },
        {
            "street_address": "3300 US 27 S",
            "city": "AVON PARK",
            "state": "FL",
            "zip": "33825"
        },
        {
            "street_address": "4000 HOLLYWOOD BLVD",
            "city": "HOLLYWOOD",
            "state": "FL",
            "zip": "33021"
        },
        {
            "street_address": "730 GOODLETTE RD N",
            "city": "NAPLES",
            "state": "FL",
            "zip": "34102"
        },
        {
            "street_address": "16400 HEALTHPARK COMMONS DR",
            "city": "FORT MYERS",
            "state": "FL",
            "zip": "33908"
        },
        {
            "street_address": "2111 SE OCEAN BLVD",
            "city": "STUART",
            "state": "FL",
            "zip": "34996"
        },
        {
            "street_address": "1235 SAN MARCO BLVD",
            "city": "JACKSONVILLE",
            "state": "FL",
            "zip": "32207"
        },
        {
            "street_address": "9618 SW 34TH LN",
            "city": "GAINESVILLE",
            "state": "FL",
            "zip": "32608"
        },
        {
            "street_address": "1630 N PLAZA DR",
            "city": "TALLAHASSEE",
            "state": "FL",
            "zip": "32308"
        },
        {
            "street_address": "8950 N KENDALL DR",
            "city": "MIAMI",
            "state": "FL",
            "zip": "33176"
        },
        {
            "street_address": "307 WILLOWBAY RIDGE ST",
            "city": "SANFORD",
            "state": "FL",
            "zip": "32771"
        },
        {
            "street_address": "2401 UNIVERSITY PKWY",
            "city": "SARASOTA",
            "state": "FL",
            "zip": "34243"
        },
        {
            "street_address": "6705 S RED ROAD",
            "city": "CORAL GABLES",
            "state": "FL",
            "zip": "33143"
        },
        {
            "street_address": "6705 S RED RD",
            "city": "SOUTH MIAMI",
            "state": "FL",
            "zip": "33143"
        },
        {
            "street_address": "475 HANSELL ST SE",
            "city": "CAIRO",
            "state": "GA",
            "zip": "39828"
        },
        {
            "street_address": "330 HOSPITAL DR",
            "city": "MACON",
            "state": "GA",
            "zip": "31217"
        },
        {
            "street_address": "1109 BURLEYSON RD",
            "city": "DALTON",
            "state": "GA",
            "zip": "30720"
        },
        {
            "street_address": "1368 WELLBROOK CIR NE",
            "city": "CONYERS",
            "state": "GA",
            "zip": "30012"
        },
        {
            "street_address": "980 JOHNSON FERRY RD",
            "city": "ATLANTA",
            "state": "GA",
            "zip": "30342"
        },
        {
            "street_address": "9026 SNIPE LANE",
            "city": "JONESBORO",
            "state": "GA",
            "zip": "30236"
        },
        {
            "street_address": "2709 MEREDYTH DR STE 340",
            "city": "ALBANY",
            "state": "GA",
            "zip": "31707"
        },
        {
            "street_address": "33 HARDEN HILL RD",
            "city": "WATKINSVILLE",
            "state": "GA",
            "zip": "30677"
        },
        {
            "street_address": "1600 MEDICAL CENTER DR",
            "city": "HUNTINGTON",
            "state": "WV",
            "zip": "25701"
        },
        {
            "street_address": "1120 15TH ST # BA-4411",
            "city": "AUGUSTA",
            "state": "GA",
            "zip": "30912"
        },
        {
            "street_address": "1725 NEW HANOVER MEDICAL PARK DR",
            "city": "WILMINGTON",
            "state": "NC",
            "zip": "28403"
        },
        {
            "street_address": "705 N 8TH AVE STE 2B",
            "city": "DILLON",
            "state": "SC",
            "zip": "29536"
        },
        {
            "street_address": "2300 MANCHESTER EXPY",
            "city": "COLUMBUS",
            "state": "GA",
            "zip": "31904"
        },
        {
            "street_address": "1395 EISENHOWER DR",
            "city": "SAVANNAH",
            "state": "GA",
            "zip": "31406"
        },
        {
            "street_address": "1825 MARTHA BERRY BLVD NW",
            "city": "ROME",
            "state": "GA",
            "zip": "30165"
        },
        {
            "street_address": "200 S ENOTA DR NE",
            "city": "GAINESVILLE",
            "state": "GA",
            "zip": "30501"
        },
        {
            "street_address": "605 N WESTOVER BLVD",
            "city": "ALBANY",
            "state": "GA",
            "zip": "31707"
        },
        {
            "street_address": "20 GLENLAKE PKWY",
            "city": "ATLANTA",
            "state": "GA",
            "zip": "30328"
        },
        {
            "street_address": "9 RICHLAND MEDICAL PARK DR",
            "city": "COLUMBIA",
            "state": "SC",
            "zip": "29203"
        },
        {
            "street_address": "3890 JOHNS CREEK PKWY",
            "city": "SUWANEE",
            "state": "GA",
            "zip": "30024"
        },
        {
            "street_address": "302 CALIFORNIA AVE",
            "city": "WAHIAWA",
            "state": "HI",
            "zip": "96786"
        },
        {
            "street_address": "81-956 HALEKII ST",
            "city": "KEALAKEKUA",
            "state": "HI",
            "zip": "96750"
        },
        {
            "street_address": "1314 S KING ST STE 511",
            "city": "HONOLULU",
            "state": "HI",
            "zip": "96814"
        },
        {
            "street_address": "500 ALA MOANA BLVD STE 4-470",
            "city": "HONOLULU",
            "state": "HI",
            "zip": "96813"
        },
        {
            "street_address": "928 NUUANU AVE",
            "city": "HONOLULU",
            "state": "HI",
            "zip": "96817"
        },
        {
            "street_address": "1712 LILIHA ST STE 205",
            "city": "HONOLULU",
            "state": "HI",
            "zip": "96817"
        },
        {
            "street_address": "1301 PUNCHBOWL ST",
            "city": "HONOLULU",
            "state": "HI",
            "zip": "96813"
        },
        {
            "street_address": "55 520 KULANUI ST",
            "city": "LAIE",
            "state": "HI",
            "zip": "96762"
        },
        {
            "street_address": "1401 SOUTH BERETANIA STREET",
            "city": "HONOLULU",
            "state": "HI",
            "zip": "96814"
        },
        {
            "street_address": "93 PII MAUNA ST",
            "city": "PUKALANI",
            "state": "HI",
            "zip": "96788"
        },
        {
            "street_address": "64-1035 MAMALAHOA HWY",
            "city": "KAMUELA",
            "state": "HI",
            "zip": "96743"
        },
        {
            "street_address": "64-1035 MAMALAHOA HWY",
            "city": "KAMUELA",
            "state": "HI",
            "zip": "96743"
        },
        {
            "street_address": "888 S KING ST",
            "city": "HONOLULU",
            "state": "HI",
            "zip": "96813"
        },
        {
            "street_address": "1301 PUNCHBOWL ST",
            "city": "HONOLULU",
            "state": "HI",
            "zip": "96813"
        },
        {
            "street_address": "85 MAUI LANI PKWY",
            "city": "WAILUKU",
            "state": "HI",
            "zip": "96793"
        },
        {
            "street_address": "1 JARRETT WHITE RD",
            "city": "TRIPLER ARMY MEDICAL CENTER",
            "state": "HI",
            "zip": "96859"
        },
        {
            "street_address": "4643-B WAIMEA CANYON DRIVE",
            "city": "WAIMEA",
            "state": "HI",
            "zip": "96796"
        },
        {
            "street_address": "1 JARRETT WHITE RD",
            "city": "TRIPLER AMC",
            "state": "HI",
            "zip": "96859"
        },
        {
            "street_address": "300 PASTEUR DR",
            "city": "STANFORD",
            "state": "CA",
            "zip": "94305"
        },
        {
            "street_address": "550 S BERETANIA ST",
            "city": "HONOLULU",
            "state": "HI",
            "zip": "96813"
        },
        {
            "street_address": "1228 E RUSHOLME ST",
            "city": "DAVENPORT",
            "state": "IA",
            "zip": "52803"
        },
        {
            "street_address": "1075 GOLDEN VALLEY DR",
            "city": "BETTENDORF",
            "state": "IA",
            "zip": "52722"
        },
        {
            "street_address": "200 HAWKINS DR",
            "city": "IOWA CITY",
            "state": "IA",
            "zip": "52242"
        },
        {
            "street_address": "1214 S GRANT RD",
            "city": "CARROLL",
            "state": "IA",
            "zip": "51401"
        },
        {
            "street_address": "1300 37TH ST",
            "city": "WEST DES MOINES",
            "state": "IA",
            "zip": "50266"
        },
        {
            "street_address": "4225 FLEUR DR # 190",
            "city": "DES MOINES",
            "state": "IA",
            "zip": "50321"
        },
        {
            "street_address": "411 LAUREL ST",
            "city": "DES MOINES",
            "state": "IA",
            "zip": "50314"
        },
        {
            "street_address": "1500 ASSOCIATES DR",
            "city": "DUBUQUE",
            "state": "IA",
            "zip": "52002"
        },
        {
            "street_address": "201 RIDGE ST",
            "city": "COUNCIL BLUFFS",
            "state": "IA",
            "zip": "51503"
        },
        {
            "street_address": "3705 RIVER RIDGE DR NE",
            "city": "CEDAR RAPIDS",
            "state": "IA",
            "zip": "52402"
        },
        {
            "street_address": "200 HAWKINS DR",
            "city": "IOWA CITY",
            "state": "IA",
            "zip": "52242"
        },
        {
            "street_address": "800 MERCY DR",
            "city": "COUNCIL BLUFFS",
            "state": "IA",
            "zip": "51503"
        },
        {
            "street_address": "200 HAWKINS DR",
            "city": "IOWA CITY",
            "state": "IA",
            "zip": "52242"
        },
        {
            "street_address": "200 HAWKINS DR",
            "city": "IOWA CITY",
            "state": "IA",
            "zip": "52242"
        },
        {
            "street_address": "1212 PLEASANT ST STE 211",
            "city": "DES MOINES",
            "state": "IA",
            "zip": "50309"
        },
        {
            "street_address": "14543 GLOBAL PKWY STE 1102ND",
            "city": "FORT MYERS",
            "state": "FL",
            "zip": "33913"
        },
        {
            "street_address": "3317 SOUTHERN HILLS DR",
            "city": "DES MOINES",
            "state": "IA",
            "zip": "50321"
        },
        {
            "street_address": "1316 S MAIN ST",
            "city": "CLARION",
            "state": "IA",
            "zip": "50525"
        },
        {
            "street_address": "200 HAWKINS DR",
            "city": "IOWA CITY",
            "state": "IA",
            "zip": "52242"
        },
        {
            "street_address": "3319 SPRING ST",
            "city": "DAVENPORT",
            "state": "IA",
            "zip": "52807"
        },
        {
            "street_address": "8854 W EMERALD ST",
            "city": "BOISE",
            "state": "ID",
            "zip": "83704"
        },
        {
            "street_address": "1174 ALTURAS DR STE 4A",
            "city": "MOSCOW",
            "state": "ID",
            "zip": "83843"
        },
        {
            "street_address": "901 N CURTIS RD",
            "city": "BOISE",
            "state": "ID",
            "zip": "83706"
        },
        {
            "street_address": "3903 HARRISON BLVD",
            "city": "OGDEN",
            "state": "UT",
            "zip": "84403"
        },
        {
            "street_address": "775 POLE LINE RD W STE 213",
            "city": "TWIN FALLS",
            "state": "ID",
            "zip": "83301"
        },
        {
            "street_address": "777 HOSPITAL WAY STE 201",
            "city": "POCATELLO",
            "state": "ID",
            "zip": "83201"
        },
        {
            "street_address": "404 E ELM ST",
            "city": "CALDWELL",
            "state": "ID",
            "zip": "83605"
        },
        {
            "street_address": "2985 CORTEZ AVE STE 200",
            "city": "IDAHO FALLS",
            "state": "ID",
            "zip": "83404"
        },
        {
            "street_address": "1075 N CURTIS RD STE 101",
            "city": "BOISE",
            "state": "ID",
            "zip": "83706"
        },
        {
            "street_address": "6140 W CURTISIAN AVE STE 400",
            "city": "BOISE",
            "state": "ID",
            "zip": "83704"
        },
        {
            "street_address": "1945 HILAND AVE",
            "city": "BURLEY",
            "state": "ID",
            "zip": "83318"
        },
        {
            "street_address": "2400 W A ST STE G",
            "city": "MOSCOW",
            "state": "ID",
            "zip": "83843"
        },
        {
            "street_address": "2003 KOOTENAI HEALTH WAY",
            "city": "COEUR D ALENE",
            "state": "ID",
            "zip": "83814"
        },
        {
            "street_address": "1072 N LIBERTY ST STE 201",
            "city": "BOISE",
            "state": "ID",
            "zip": "83704"
        },
        {
            "street_address": "1010 E MCDOWELL RD STE 103",
            "city": "PHOENIX",
            "state": "AZ",
            "zip": "85006"
        },
        {
            "street_address": "415 6TH ST",
            "city": "LEWISTON",
            "state": "ID",
            "zip": "83501"
        },
        {
            "street_address": "NAVAL HOSPITAL CAMP PENDLETON",
            "city": "CAMP PENDLETON",
            "state": "CA",
            "zip": "92055"
        },
        {
            "street_address": "901 N CURTIS RD STE 103",
            "city": "BOISE",
            "state": "ID",
            "zip": "83706"
        },
        {
            "street_address": "98 POPLAR ST",
            "city": "BLACKFOOT",
            "state": "ID",
            "zip": "83221"
        },
        {
            "street_address": "1641 E POLSTON AVE",
            "city": "POST FALLS",
            "state": "ID",
            "zip": "83854"
        },
        {
            "street_address": "4800 S CHICAGO BEACH DR",
            "city": "CHICAGO",
            "state": "IL",
            "zip": "60615"
        },
        {
            "street_address": "22711 GRAND RIVER AVE",
            "city": "DETROIT",
            "state": "MI",
            "zip": "48219"
        },
        {
            "street_address": "340 W LINCOLN ST",
            "city": "BELLEVILLE",
            "state": "IL",
            "zip": "62220"
        },
        {
            "street_address": "4405 WEAVER PKWY",
            "city": "WARRENVILLE",
            "state": "IL",
            "zip": "60555"
        },
        {
            "street_address": "2160 S 1ST AVE",
            "city": "MAYWOOD",
            "state": "IL",
            "zip": "60153"
        },
        {
            "street_address": "1900 W POLK ST STE 625",
            "city": "CHICAGO",
            "state": "IL",
            "zip": "60612"
        },
        {
            "street_address": "259 E ERIE ST STE 1600",
            "city": "CHICAGO",
            "state": "IL",
            "zip": "60611"
        },
        {
            "street_address": "2425 W 22ND ST",
            "city": "OAK BROOK",
            "state": "IL",
            "zip": "60523"
        },
        {
            "street_address": "5995 SPRING CREEK RD",
            "city": "ROCKFORD",
            "state": "IL",
            "zip": "61114"
        },
        {
            "street_address": "1950 W POLK ST",
            "city": "CHICAGO",
            "state": "IL",
            "zip": "60612"
        },
        {
            "street_address": "1740 W TAYLOR ST",
            "city": "CHICAGO",
            "state": "IL",
            "zip": "60612"
        },
        {
            "street_address": "1801 W TAYLOR ST",
            "city": "CHICAGO",
            "state": "IL",
            "zip": "60612"
        },
        {
            "street_address": "2160 S 1ST AVE",
            "city": "MAYWOOD",
            "state": "IL",
            "zip": "60153"
        },
        {
            "street_address": "1306 MAPLE ST.",
            "city": "ELDORADO",
            "state": "IL",
            "zip": "62930"
        },
        {
            "street_address": "550 N SHERMAN DR",
            "city": "ROYAL OAK",
            "state": "MI",
            "zip": "48067"
        },
        {
            "street_address": "2160 S 1ST AVE",
            "city": "MAYWOOD",
            "state": "IL",
            "zip": "60153"
        },
        {
            "street_address": "2160 S 1ST AVE",
            "city": "MAYWOOD",
            "state": "IL",
            "zip": "60153"
        },
        {
            "street_address": "5841 S MARYLAND AVE # MC6040",
            "city": "CHICAGO",
            "state": "IL",
            "zip": "60637"
        },
        {
            "street_address": "3219 CLIFTON AVE",
            "city": "CINCINNATI",
            "state": "OH",
            "zip": "45220"
        },
        {
            "street_address": "2160 S 1ST AVE",
            "city": "MAYWOOD",
            "state": "IL",
            "zip": "60153"
        },
        {
            "street_address": "2401 W UNIVERSITY AVE",
            "city": "MUNCIE",
            "state": "IN",
            "zip": "47303"
        },
        {
            "street_address": "520 MARY ST STE 520",
            "city": "EVANSVILLE",
            "state": "IN",
            "zip": "47710"
        },
        {
            "street_address": "901 WESTLAKE DR",
            "city": "COLUMBIA",
            "state": "KY",
            "zip": "42728"
        },
        {
            "street_address": "2343 W LINCOLN RD",
            "city": "KOKOMO",
            "state": "IN",
            "zip": "46902"
        },
        {
            "street_address": "550 UNIVERSITY BLVD",
            "city": "INDIANAPOLIS",
            "state": "IN",
            "zip": "46202"
        },
        {
            "street_address": "9500 EUCLID AVE",
            "city": "CLEVELAND",
            "state": "OH",
            "zip": "44195"
        },
        {
            "street_address": "2343 W LINCOLN RD",
            "city": "KOKOMO",
            "state": "IN",
            "zip": "46902"
        },
        {
            "street_address": "8433 HARCOURT ROAD",
            "city": "INDIANAPOLIS",
            "state": "IN",
            "zip": "46260"
        },
        {
            "street_address": "2401 W UNIVERSITY AVE",
            "city": "MUNCIE",
            "state": "IN",
            "zip": "47303"
        },
        {
            "street_address": "442 W HIGH ST STE 3",
            "city": "BRYAN",
            "state": "OH",
            "zip": "43506"
        },
        {
            "street_address": "705 RILEY HOSPITAL DR",
            "city": "INDIANAPOLIS",
            "state": "IN",
            "zip": "46202"
        },
        {
            "street_address": "30 W RAMPART ST",
            "city": "SHELBYVILLE",
            "state": "IN",
            "zip": "46176"
        },
        {
            "street_address": "8865 W 400 N",
            "city": "MICHIGAN CITY",
            "state": "IN",
            "zip": "46360"
        },
        {
            "street_address": "520 MARY ST STE 520",
            "city": "EVANSVILLE",
            "state": "IN",
            "zip": "47710"
        },
        {
            "street_address": "2108 AVINITY LOOP",
            "city": "CHARLOTTESVILLE",
            "state": "VA",
            "zip": "22902"
        },
        {
            "street_address": "350 W 11TH ST RM 4040",
            "city": "INDIANAPOLIS",
            "state": "IN",
            "zip": "46202"
        },
        {
            "street_address": "550 UNIVERSITY BLVD",
            "city": "INDIANAPOLIS",
            "state": "IN",
            "zip": "46202"
        },
        {
            "street_address": "2801 NEW HARTFORD RD",
            "city": "OWENSBORO",
            "state": "KY",
            "zip": "42303"
        },
        {
            "street_address": "26 SIX PINE RANCH RD",
            "city": "BATESVILLE",
            "state": "IN",
            "zip": "47006"
        },
        {
            "street_address": "1373 E STATE ROAD 62",
            "city": "MADISON",
            "state": "IN",
            "zip": "47250"
        },
        {
            "street_address": "5701 W 119TH ST",
            "city": "OVERLAND PARK",
            "state": "KS",
            "zip": "66209"
        },
        {
            "street_address": "625 COMMERCIAL ST",
            "city": "ATCHISON",
            "state": "KS",
            "zip": "66002"
        },
        {
            "street_address": "3243 E MURDOCK, SUITE 404",
            "city": "WICHITA",
            "state": "KS",
            "zip": "67208"
        },
        {
            "street_address": "112 W ROSS BLVD STE C",
            "city": "DODGE CITY",
            "state": "KS",
            "zip": "67801"
        },
        {
            "street_address": "555 W 15TH ST",
            "city": "LIBERAL",
            "state": "KS",
            "zip": "67901"
        },
        {
            "street_address": "250 STANAFORD RD",
            "city": "BECKLEY",
            "state": "WV",
            "zip": "25801"
        },
        {
            "street_address": "2401 GILLHAM RD",
            "city": "KANSAS CITY",
            "state": "MO",
            "zip": "64108"
        },
        {
            "street_address": "818 N EMPORIA",
            "city": "WICHITA",
            "state": "KS",
            "zip": "67214"
        },
        {
            "street_address": "2020 CENTRAL AVENUE",
            "city": "DODGE CITY",
            "state": "KS",
            "zip": "67801"
        },
        {
            "street_address": "2301 HOLMES ST",
            "city": "KANSAS CITY",
            "state": "MO",
            "zip": "64108"
        },
        {
            "street_address": "2650 SHAWNEE MISSION PKWY",
            "city": "WESTWOOD",
            "state": "KS",
            "zip": "66205"
        },
        {
            "street_address": "1130 W 4TH ST STE 3202",
            "city": "LAWRENCE",
            "state": "KS",
            "zip": "66044"
        },
        {
            "street_address": "3901 RAINBOW BLVD",
            "city": "KANSAS CITY",
            "state": "KS",
            "zip": "66160"
        },
        {
            "street_address": "4000 CAMBRIDGE ST",
            "city": "KANSAS CITY",
            "state": "KS",
            "zip": "66160"
        },
        {
            "street_address": "4320 WORNALL RD STE 50",
            "city": "KANSAS CITY",
            "state": "MO",
            "zip": "64111"
        },
        {
            "street_address": "2020 CENTRAL AVENUE",
            "city": "DODGE CITY",
            "state": "KS",
            "zip": "67801"
        },
        {
            "street_address": "810 RAVENHILL DR",
            "city": "ATCHISON",
            "state": "KS",
            "zip": "66002"
        },
        {
            "street_address": "4000 CAMBRIDGE ST # MS 2005",
            "city": "KANSAS CITY",
            "state": "KS",
            "zip": "66160"
        },
        {
            "street_address": "818 N EMPORIA ST",
            "city": "WICHITA",
            "state": "KS",
            "zip": "67214"
        },
        {
            "street_address": "818 N EMPORIA",
            "city": "WICHITA",
            "state": "KS",
            "zip": "67214"
        },
        {
            "street_address": "4402 CHURCHMAN AVE",
            "city": "LOUISVILLE",
            "state": "KY",
            "zip": "40215"
        },
        {
            "street_address": "901 WESTLAKE DR",
            "city": "COLUMBIA",
            "state": "KY",
            "zip": "42728"
        },
        {
            "street_address": "2160 S 1ST AVE",
            "city": "MAYWOOD",
            "state": "IL",
            "zip": "60153"
        },
        {
            "street_address": "2350 REGENCY RD STE A",
            "city": "LEXINGTON",
            "state": "KY",
            "zip": "40503"
        },
        {
            "street_address": "20 MEDICAL VILLAGE DR",
            "city": "EDGEWOOD",
            "state": "KY",
            "zip": "41017"
        },
        {
            "street_address": "1760 NICHOLASVILLE RD",
            "city": "LEXINGTON",
            "state": "KY",
            "zip": "40503"
        },
        {
            "street_address": "415 MORRIS ST",
            "city": "CHARLESTON",
            "state": "WV",
            "zip": "25301"
        },
        {
            "street_address": "613 23RD ST",
            "city": "ASHLAND",
            "state": "KY",
            "zip": "41101"
        },
        {
            "street_address": "902 WESTLAKE DR",
            "city": "COLUMBIA",
            "state": "KY",
            "zip": "42728"
        },
        {
            "street_address": "1623 NASHVILLE ST",
            "city": "RUSSELLVILLE",
            "state": "KY",
            "zip": "42276"
        },
        {
            "street_address": "200 S RIVER ST",
            "city": "PLAINS",
            "state": "PA",
            "zip": "18705"
        },
        {
            "street_address": "911 BYPASS RD BLDG A",
            "city": "PIKEVILLE",
            "state": "KY",
            "zip": "41501"
        },
        {
            "street_address": "3999 DUTCHMANS LN STE 7B",
            "city": "LOUISVILLE",
            "state": "KY",
            "zip": "40207"
        },
        {
            "street_address": "20 MEDICAL VILLAGE DR",
            "city": "EDGEWOOD",
            "state": "KY",
            "zip": "41017"
        },
        {
            "street_address": "1107 CROWN POINTE DR",
            "city": "ELIZABETHTOWN",
            "state": "KY",
            "zip": "42701"
        },
        {
            "street_address": "540 JETT DR",
            "city": "JACKSON",
            "state": "KY",
            "zip": "41339"
        },
        {
            "street_address": "1405 E 1ST ST STE 201",
            "city": "DUMAS",
            "state": "TX",
            "zip": "79029"
        },
        {
            "street_address": "401 E CHESTNUT ST",
            "city": "LOUISVILLE",
            "state": "KY",
            "zip": "40202"
        },
        {
            "street_address": "MEDICAL CENTER NORTH 1161 21ST AVENUE S SUITE CCC-4312",
            "city": "NASHVILLE",
            "state": "TN",
            "zip": "37232"
        },
        {
            "street_address": "225 ABRAHAM FLEXNER WAY STE 850",
            "city": "LOUISVILLE",
            "state": "KY",
            "zip": "40202"
        },
        {
            "street_address": "7777 HENNESSY BLVD STE 1008",
            "city": "BATON ROUGE",
            "state": "LA",
            "zip": "70808"
        },
        {
            "street_address": "5233 DIJON DR",
            "city": "BATON ROUGE",
            "state": "LA",
            "zip": "70808"
        },
        {
            "street_address": "151 HILL ST",
            "city": "EUNICE",
            "state": "LA",
            "zip": "70535"
        },
        {
            "street_address": "3975 I 49 S SERVICE RD",
            "city": "OPELOUSAS",
            "state": "LA",
            "zip": "70570"
        },
        {
            "street_address": "129 RUE LOUIS XIV",
            "city": "LAFAYETTE",
            "state": "LA",
            "zip": "70508"
        },
        {
            "street_address": "1000 W PINHOOK RD",
            "city": "LAFAYETTE",
            "state": "LA",
            "zip": "70503"
        },
        {
            "street_address": "1150 ROBERT BLVD",
            "city": "SLIDELL",
            "state": "LA",
            "zip": "70458"
        },
        {
            "street_address": "6400 PERKINS RD",
            "city": "BATON ROUGE",
            "state": "LA",
            "zip": "70808"
        },
        {
            "street_address": "3600 FLORIDA BLVD",
            "city": "BATON ROUGE",
            "state": "LA",
            "zip": "70806"
        },
        {
            "street_address": "3525 PRYTANIA ST",
            "city": "NEW ORLEANS",
            "state": "LA",
            "zip": "70115"
        },
        {
            "street_address": "1514 JEFFERSON HWY",
            "city": "NEW ORLEANS",
            "state": "LA",
            "zip": "70121"
        },
        {
            "street_address": "3890 JOHNS CREEK PKWY",
            "city": "SUWANEE",
            "state": "GA",
            "zip": "30024"
        },
        {
            "street_address": "3900 VETERANS MEMORIAL BLVD",
            "city": "METAIRIE",
            "state": "LA",
            "zip": "70002"
        },
        {
            "street_address": "8030 CROWDER BLVD.",
            "city": "NEW ORLEANS",
            "state": "LA",
            "zip": "70127"
        },
        {
            "street_address": "9094 PERKINS ROAD",
            "city": "BATON ROUGE",
            "state": "LA",
            "zip": "70810"
        },
        {
            "street_address": "2408 BROADMOOR BLVD STE B",
            "city": "MONROE",
            "state": "LA",
            "zip": "71201"
        },
        {
            "street_address": "920 OLIVER RD",
            "city": "MONROE",
            "state": "LA",
            "zip": "71201"
        },
        {
            "street_address": "112 SAINT JOHN ST",
            "city": "MONROE",
            "state": "LA",
            "zip": "71201"
        },
        {
            "street_address": "3311 PRESCOTT RD",
            "city": "ALEXANDRIA",
            "state": "LA",
            "zip": "71301"
        },
        {
            "street_address": "1000 BLYTHE BLVD STE 601",
            "city": "CHARLOTTE",
            "state": "NC",
            "zip": "28203"
        },
        {
            "street_address": "800 WASHINGTON ST",
            "city": "BOSTON",
            "state": "MA",
            "zip": "02111"
        },
        {
            "street_address": "243 CHARLES ST",
            "city": "BOSTON",
            "state": "MA",
            "zip": "02114"
        },
        {
            "street_address": "32711 LONG NECK RD",
            "city": "MILLSBORO",
            "state": "DE",
            "zip": "19966"
        },
        {
            "street_address": "1400 VFW PKWY",
            "city": "WEST ROXBURY",
            "state": "MA",
            "zip": "02132"
        },
        {
            "street_address": "860 WASHINGTON STREET",
            "city": "BOSTON",
            "state": "MA",
            "zip": "02111"
        },
        {
            "street_address": "49 APPLE VALLEY DR",
            "city": "SHARON",
            "state": "MA",
            "zip": "02067"
        },
        {
            "street_address": "800 WASHINGTON ST",
            "city": "BOSTON",
            "state": "MA",
            "zip": "02111"
        },
        {
            "street_address": "800 WASHINGTON ST",
            "city": "BOSTON",
            "state": "MA",
            "zip": "02111"
        },
        {
            "street_address": "375 LONGWOOD AVE",
            "city": "BOSTON",
            "state": "MA",
            "zip": "02215"
        },
        {
            "street_address": "330 BROOKLINE AVE",
            "city": "BOSTON",
            "state": "MA",
            "zip": "02215"
        },
        {
            "street_address": "10 N MAIN ST",
            "city": "CHARLTON",
            "state": "MA",
            "zip": "01507"
        },
        {
            "street_address": "55 FRUIT ST",
            "city": "BOSTON",
            "state": "MA",
            "zip": "02114"
        },
        {
            "street_address": "500 OSBORN BLVD",
            "city": "SAULT SAINTE MARIE",
            "state": "MI",
            "zip": "49783"
        },
        {
            "street_address": "736 CAMBRIDGE ST",
            "city": "BRIGHTON",
            "state": "MA",
            "zip": "02135"
        },
        {
            "street_address": "204 PROCTOR AVE",
            "city": "REVERE",
            "state": "MA",
            "zip": "02151"
        },
        {
            "street_address": "3454 OAK ALLEY CT STE 214",
            "city": "TOLEDO",
            "state": "OH",
            "zip": "43606"
        },
        {
            "street_address": "55 FOGG RD",
            "city": "WEYMOUTH",
            "state": "MA",
            "zip": "02190"
        },
        {
            "street_address": "3800 RESERVOIR RD NW",
            "city": "WASHINGTON",
            "state": "DC",
            "zip": "20007"
        },
        {
            "street_address": "11 NEVINS ST",
            "city": "BRIGHTON",
            "state": "MA",
            "zip": "02135"
        },
        {
            "street_address": "300 MOUNT AUBURN ST",
            "city": "CAMBRIDGE",
            "state": "MA",
            "zip": "02138"
        },
        {
            "street_address": "900 S CATON AVE",
            "city": "BALTIMORE",
            "state": "MD",
            "zip": "21229"
        },
        {
            "street_address": "44055 RIVERSIDE PKWY STE 108",
            "city": "LEESBURG",
            "state": "VA",
            "zip": "20176"
        },
        {
            "street_address": "6501 LOISDALE CT",
            "city": "SPRINGFIELD",
            "state": "VA",
            "zip": "22150"
        },
        {
            "street_address": "9000 FRANKLIN SQUARE DR",
            "city": "BALTIMORE",
            "state": "MD",
            "zip": "21237"
        },
        {
            "street_address": "10401 OLD GEORGETOWN ROAD",
            "city": "BETHESDA",
            "state": "MD",
            "zip": "20814"
        },
        {
            "street_address": "4940 EASTERN AVE FL I3",
            "city": "BALTIMORE",
            "state": "MD",
            "zip": "21224"
        },
        {
            "street_address": "8433 HARCOURT ROAD",
            "city": "INDIANAPOLIS",
            "state": "IN",
            "zip": "46260"
        },
        {
            "street_address": "5233 KING AVE",
            "city": "BALTIMORE",
            "state": "MD",
            "zip": "21237"
        },
        {
            "street_address": "600 N WOLFE ST",
            "city": "BALTIMORE",
            "state": "MD",
            "zip": "21287"
        },
        {
            "street_address": "7901 MAPLE AVE",
            "city": "TAKOMA PARK",
            "state": "MD",
            "zip": "20912"
        },
        {
            "street_address": "12205 TULLAMORE RD",
            "city": "TIMONIUM",
            "state": "MD",
            "zip": "21093"
        },
        {
            "street_address": "7505 OSLER DR",
            "city": "TOWSON",
            "state": "MD",
            "zip": "21204"
        },
        {
            "street_address": "9707 MEDICAL CENTER DR",
            "city": "ROCKVILLE",
            "state": "MD",
            "zip": "20850"
        },
        {
            "street_address": "9707 MEDICAL CENTER DR",
            "city": "ROCKVILLE",
            "state": "MD",
            "zip": "20850"
        },
        {
            "street_address": "10401 OLD GEORGETOWN RD STE 208",
            "city": "BETHESDA",
            "state": "MD",
            "zip": "20814"
        },
        {
            "street_address": "15245 SHADY GROVE RD STE 155",
            "city": "ROCKVILLE",
            "state": "MD",
            "zip": "20850"
        },
        {
            "street_address": "900 S CATON AVE",
            "city": "BALTIMORE",
            "state": "MD",
            "zip": "21229"
        },
        {
            "street_address": "201 E UNIVERSITY PKWY",
            "city": "BALTIMORE",
            "state": "MD",
            "zip": "21218"
        },
        {
            "street_address": "7239 HANOVER PKWY STE B",
            "city": "GREENBELT",
            "state": "MD",
            "zip": "20770"
        },
        {
            "street_address": "2000 W BALTIMORE ST",
            "city": "BALTIMORE",
            "state": "MD",
            "zip": "21223"
        },
        {
            "street_address": "887 CONGRESS ST",
            "city": "PORTLAND",
            "state": "ME",
            "zip": "04102"
        },
        {
            "street_address": "6400 PERKINS RD",
            "city": "BATON ROUGE",
            "state": "LA",
            "zip": "70808"
        },
        {
            "street_address": "252 ENFIELD RD",
            "city": "LINCOLN",
            "state": "ME",
            "zip": "04457"
        },
        {
            "street_address": "1265 UNION AVE, 2 SHORB TOWER",
            "city": "MEMPHIS",
            "state": "TN",
            "zip": "38104"
        },
        {
            "street_address": "1500 DODSON AVE",
            "city": "FORT SMITH",
            "state": "AR",
            "zip": "72901"
        },
        {
            "street_address": "210 WESTERN AVE",
            "city": "SOUTH PORTLAND",
            "state": "ME",
            "zip": "04106"
        },
        {
            "street_address": "2001 MEDICAL PKWY",
            "city": "ANNAPOLIS",
            "state": "MD",
            "zip": "21401"
        },
        {
            "street_address": "417 STATE ST STE 330",
            "city": "BANGOR",
            "state": "ME",
            "zip": "04401"
        },
        {
            "street_address": "46 FAIRVIEW AVE STE 223",
            "city": "SKOWHEGAN",
            "state": "ME",
            "zip": "04976"
        },
        {
            "street_address": "2600 WILSON ST",
            "city": "MILES CITY",
            "state": "MT",
            "zip": "59301"
        },
        {
            "street_address": "193 MAIN ST",
            "city": "NORWAY",
            "state": "ME",
            "zip": "04268"
        },
        {
            "street_address": "518 LANDMARK HILL RTE 1",
            "city": "KITTERY",
            "state": "ME",
            "zip": "03904"
        },
        {
            "street_address": "887 CONGRESS ST STE 400",
            "city": "PORTLAND",
            "state": "ME",
            "zip": "04102"
        },
        {
            "street_address": "26850 PROVIDENCE PKWY",
            "city": "NOVI",
            "state": "MI",
            "zip": "48374"
        },
        {
            "street_address": "11900 E 12 MILE RD STE 210",
            "city": "WARREN",
            "state": "MI",
            "zip": "48093"
        },
        {
            "street_address": "78 RIDGEWOOD DR",
            "city": "BANGOR",
            "state": "ME",
            "zip": "04401"
        },
        {
            "street_address": "420 FRANKLIN ST",
            "city": "RUMFORD",
            "state": "ME",
            "zip": "04276"
        },
        {
            "street_address": "707 HOLLYBROOK DR",
            "city": "LONGVIEW",
            "state": "TX",
            "zip": "75605"
        },
        {
            "street_address": "244 WESTERN AVENUE",
            "city": "SOUTH PORTLAND",
            "state": "ME",
            "zip": "04106"
        },
        {
            "street_address": "10 ANDOVER RD",
            "city": "PORTLAND",
            "state": "ME",
            "zip": "04102"
        },
        {
            "street_address": "22711 GRAND RIVER AVE",
            "city": "DETROIT",
            "state": "MI",
            "zip": "48219"
        },
        {
            "street_address": "7125 ORCHARD LAKE RD",
            "city": "WEST BLOOMFIELD",
            "state": "MI",
            "zip": "48322"
        },
        {
            "street_address": "1 WILLIAM CARLS DR",
            "city": "COMMERCE",
            "state": "MI",
            "zip": "48382"
        },
        {
            "street_address": "37504 7 MILE RD",
            "city": "LIVONIA",
            "state": "MI",
            "zip": "48152"
        },
        {
            "street_address": "12021 WILSHIRE BLVD # 745",
            "city": "LOS ANGELES",
            "state": "CA",
            "zip": "90025"
        },
        {
            "street_address": "11012 E 13 MILE RD STE 112",
            "city": "WARREN",
            "state": "MI",
            "zip": "48093"
        },
        {
            "street_address": "5450 FORT ST",
            "city": "TRENTON",
            "state": "MI",
            "zip": "48183"
        },
        {
            "street_address": "550 N SHERMAN DR",
            "city": "ROYAL OAK",
            "state": "MI",
            "zip": "48067"
        },
        {
            "street_address": "44055 RIVERSIDE PKWY STE 108",
            "city": "LEESBURG",
            "state": "VA",
            "zip": "20176"
        },
        {
            "street_address": "4501 X ST STE 3010",
            "city": "SACRAMENTO",
            "state": "CA",
            "zip": "95817"
        },
        {
            "street_address": "HENRY FORD HEALTH SYSTEM",
            "city": "DETROIT",
            "state": "MI",
            "zip": "48202"
        },
        {
            "street_address": "3409 LUDINGTON ST",
            "city": "ESCANABA",
            "state": "MI",
            "zip": "49829"
        },
        {
            "street_address": "2333 BIDDLE AVE",
            "city": "WYANDOTTE",
            "state": "MI",
            "zip": "48192"
        },
        {
            "street_address": "18100 OAKWOOD BLVD STE 213",
            "city": "DEARBORN",
            "state": "MI",
            "zip": "48124"
        },
        {
            "street_address": "2845 CAPITAL AVE SW",
            "city": "BATTLE CREEK",
            "state": "MI",
            "zip": "49015"
        },
        {
            "street_address": "1000 E PARIS AVE SE",
            "city": "GRAND RAPIDS",
            "state": "MI",
            "zip": "49546"
        },
        {
            "street_address": "73 GREENTREE DR",
            "city": "DOVER",
            "state": "DE",
            "zip": "19904"
        },
        {
            "street_address": "10861 W 10 MILE RD",
            "city": "OAK PARK",
            "state": "MI",
            "zip": "48237"
        },
        {
            "street_address": "75 BARCLAY CIR STE 200",
            "city": "ROCHESTER HILLS",
            "state": "MI",
            "zip": "48307"
        },
        {
            "street_address": "960 MEADOW RIDGE DR",
            "city": "HOLLAND",
            "state": "MI",
            "zip": "49424"
        },
        {
            "street_address": "2545 CHICAGO AVE",
            "city": "MINNEAPOLIS",
            "state": "MN",
            "zip": "55404"
        },
        {
            "street_address": "200 1ST ST SW",
            "city": "ROCHESTER",
            "state": "MN",
            "zip": "55905"
        },
        {
            "street_address": "11850 BLACKFOOT ST NW STE 300",
            "city": "COON RAPIDS",
            "state": "MN",
            "zip": "55433"
        },
        {
            "street_address": "701 DELLWOOD ST S",
            "city": "CAMBRIDGE",
            "state": "MN",
            "zip": "55008"
        },
        {
            "street_address": "701 DELLWOOD ST S",
            "city": "CAMBRIDGE",
            "state": "MN",
            "zip": "55008"
        },
        {
            "street_address": "1 VETERANS DR",
            "city": "MINNEAPOLIS",
            "state": "MN",
            "zip": "55417"
        },
        {
            "street_address": "420 DELAWARE STREET SE, MMC 195",
            "city": "MINNEAPOLIS",
            "state": "MN",
            "zip": "55455"
        },
        {
            "street_address": "2450 RIVERSIDE AVE # AO-510",
            "city": "MINNEAPOLIS",
            "state": "MN",
            "zip": "55454"
        },
        {
            "street_address": "200 1ST ST SW",
            "city": "ROCHESTER",
            "state": "MN",
            "zip": "55905"
        },
        {
            "street_address": "9325 UPLAND LN N # 255",
            "city": "MAPLE GROVE",
            "state": "MN",
            "zip": "55369"
        },
        {
            "street_address": "4325 9TH AVE W",
            "city": "HIBBING",
            "state": "MN",
            "zip": "55746"
        },
        {
            "street_address": "11850 BLACKFOOT ST NW STE 130",
            "city": "COON RAPIDS",
            "state": "MN",
            "zip": "55433"
        },
        {
            "street_address": "323 S MINNESOTA ST",
            "city": "CROOKSTON",
            "state": "MN",
            "zip": "56716"
        },
        {
            "street_address": "295 PHALEN BLVD",
            "city": "SAINT PAUL",
            "state": "MN",
            "zip": "55130"
        },
        {
            "street_address": "1680 DIAGONAL RD",
            "city": "WORTHINGTON",
            "state": "MN",
            "zip": "56187"
        },
        {
            "street_address": "1601 SIOUX VALLEY DR",
            "city": "LUVERNE",
            "state": "MN",
            "zip": "56156"
        },
        {
            "street_address": "NORTH MEMORIAL HEALTH CARE",
            "city": "ROBBINSDALE",
            "state": "MN",
            "zip": "55422"
        },
        {
            "street_address": "640 JACKSON STREET",
            "city": "ST PAUL",
            "state": "MN",
            "zip": "55101"
        },
        {
            "street_address": "200 1ST ST SW",
            "city": "ROCHESTER",
            "state": "MN",
            "zip": "55905"
        },
        {
            "street_address": "101 DATES DR",
            "city": "ITHACA",
            "state": "NY",
            "zip": "14850"
        },
        {
            "street_address": "800 W JEFFERSON ST",
            "city": "KIRKSVILLE",
            "state": "MO",
            "zip": "63501"
        },
        {
            "street_address": "7777 HENNESSY BLVD STE 1008",
            "city": "BATON ROUGE",
            "state": "LA",
            "zip": "70808"
        },
        {
            "street_address": "1 BARNES JEWISH HOSPITAL PLZ",
            "city": "SAINT LOUIS",
            "state": "MO",
            "zip": "63110"
        },
        {
            "street_address": "1 BARNES JEWISH HOSPITAL PLZ",
            "city": "SAINT LOUIS",
            "state": "MO",
            "zip": "63110"
        },
        {
            "street_address": "10010 KENNERLY RD",
            "city": "SAINT LOUIS",
            "state": "MO",
            "zip": "63128"
        },
        {
            "street_address": "3220 BLUFF CREEK DR",
            "city": "COLUMBIA",
            "state": "MO",
            "zip": "65201"
        },
        {
            "street_address": "2861 NE INDEPENDENCE AVE STE 205",
            "city": "LEES SUMMIT",
            "state": "MO",
            "zip": "64064"
        },
        {
            "street_address": "1205 N JESSE JAMES RD",
            "city": "EXCELSIOR SPRINGS",
            "state": "MO",
            "zip": "64024"
        },
        {
            "street_address": "333 S. KIRKWOOD RD.",
            "city": "ST. LOUIS",
            "state": "MO",
            "zip": "63122"
        },
        {
            "street_address": "4921 PARKVIEW PL",
            "city": "SAINT LOUIS",
            "state": "MO",
            "zip": "63110"
        },
        {
            "street_address": "2401 GILLHAM RD",
            "city": "KANSAS CITY",
            "state": "MO",
            "zip": "64108"
        },
        {
            "street_address": "1 HOSPITAL DR",
            "city": "COLUMBIA",
            "state": "MO",
            "zip": "65212"
        },
        {
            "street_address": "1 HOSPITAL DR",
            "city": "COLUMBIA",
            "state": "MO",
            "zip": "65212"
        },
        {
            "street_address": "2301 HOLMES ST",
            "city": "KANSAS CITY",
            "state": "MO",
            "zip": "64108"
        },
        {
            "street_address": "12266 DEPAUL DR.",
            "city": "BRIDGETON",
            "state": "MO",
            "zip": "63044"
        },
        {
            "street_address": "19101 E VALLEY VIEW PKWY STE B",
            "city": "INDEPENDENCE",
            "state": "MO",
            "zip": "64055"
        },
        {
            "street_address": "12855 N 40 DR STE 205",
            "city": "SAINT LOUIS",
            "state": "MO",
            "zip": "63141"
        },
        {
            "street_address": "1 BARNES JEWISH HOSPITAL PLZ",
            "city": "SAINT LOUIS",
            "state": "MO",
            "zip": "63110"
        },
        {
            "street_address": "763 S NEW BALLAS RD",
            "city": "SAINT LOUIS",
            "state": "MO",
            "zip": "63141"
        },
        {
            "street_address": "3321 COLORADO BLVD",
            "city": "DENTON",
            "state": "TX",
            "zip": "76210"
        },
        {
            "street_address": "415 S 28TH AVE",
            "city": "HATTIESBURG",
            "state": "MS",
            "zip": "39401"
        },
        {
            "street_address": "971 LAKELAND DR",
            "city": "JACKSON",
            "state": "MS",
            "zip": "39216"
        },
        {
            "street_address": "2500 N STATE ST",
            "city": "JACKSON",
            "state": "MS",
            "zip": "39216"
        },
        {
            "street_address": "705 N 8TH AVE STE 2B",
            "city": "DILLON",
            "state": "SC",
            "zip": "29536"
        },
        {
            "street_address": "785 OHIO AVE STE 3G",
            "city": "CLARKSDALE",
            "state": "MS",
            "zip": "38614"
        },
        {
            "street_address": "11516 LAMEY BRIDGE ROAD STE 1",
            "city": "D'ILBERVILLE",
            "state": "MS",
            "zip": "39340"
        },
        {
            "street_address": "971 LAKELAND DRIVE",
            "city": "JACKSON",
            "state": "MS",
            "zip": "39216"
        },
        {
            "street_address": "1018 SIXTH AVE",
            "city": "PICAYUNE",
            "state": "MS",
            "zip": "39466"
        },
        {
            "street_address": "1311 ASTON AVE",
            "city": "MCCOMB",
            "state": "MS",
            "zip": "39648"
        },
        {
            "street_address": "4436 MANGUM DR",
            "city": "FLOWOOD",
            "state": "MS",
            "zip": "39232"
        },
        {
            "street_address": "1340 BROAD AVE",
            "city": "GULFPORT",
            "state": "MS",
            "zip": "39501"
        },
        {
            "street_address": "2500 N STATE ST",
            "city": "JACKSON",
            "state": "MS",
            "zip": "39216"
        },
        {
            "street_address": "303 MEDICAL CENTER DR",
            "city": "BATESVILLE",
            "state": "MS",
            "zip": "38606"
        },
        {
            "street_address": "2500 N STATE ST",
            "city": "JACKSON",
            "state": "MS",
            "zip": "39216"
        },
        {
            "street_address": "128 HIGHLAND PKWY FL 2",
            "city": "PICAYUNE",
            "state": "MS",
            "zip": "39466"
        },
        {
            "street_address": "820 MANGUM AVE",
            "city": "MENDENHALL",
            "state": "MS",
            "zip": "39114"
        },
        {
            "street_address": "1127 EARL FRYE BLVD",
            "city": "AMORY",
            "state": "MS",
            "zip": "38821"
        },
        {
            "street_address": "2500 N STATE ST",
            "city": "JACKSON",
            "state": "MS",
            "zip": "39216"
        },
        {
            "street_address": "2124 14TH ST",
            "city": "MERIDIAN",
            "state": "MS",
            "zip": "39301"
        },
        {
            "street_address": "2124 14TH ST",
            "city": "MERIDIAN",
            "state": "MS",
            "zip": "39301"
        },
        {
            "street_address": "2525 E BROADWAY ST STE 200",
            "city": "HELENA",
            "state": "MT",
            "zip": "59601"
        },
        {
            "street_address": "500 W BROADWAY ST",
            "city": "MISSOULA",
            "state": "MT",
            "zip": "59802"
        },
        {
            "street_address": "106 RIDGEWATER DR",
            "city": "POLSON",
            "state": "MT",
            "zip": "59860"
        },
        {
            "street_address": "7315 212TH ST SW STE 201",
            "city": "EDMONDS",
            "state": "WA",
            "zip": "98026"
        },
        {
            "street_address": "1330 ROCKEFELLER AVE",
            "city": "EVERETT",
            "state": "WA",
            "zip": "98201"
        },
        {
            "street_address": "2600 WILSON ST",
            "city": "MILES CITY",
            "state": "MT",
            "zip": "59301"
        },
        {
            "street_address": "300 LOCUST ST",
            "city": "AKRON",
            "state": "OH",
            "zip": "44302"
        },
        {
            "street_address": "2800 10TH AVE N",
            "city": "BILLINGS",
            "state": "MT",
            "zip": "59101"
        },
        {
            "street_address": "2345 KING AVE W",
            "city": "BILLINGS",
            "state": "MT",
            "zip": "59102"
        },
        {
            "street_address": "925 HIGHLAND BLVD",
            "city": "BOZEMAN",
            "state": "MT",
            "zip": "59715"
        },
        {
            "street_address": "1600 MEDICAL CENTER DR STE 2500",
            "city": "HUNTINGTON",
            "state": "WV",
            "zip": "25701"
        },
        {
            "street_address": "2600 WILSON ST",
            "city": "MILES CITY",
            "state": "MT",
            "zip": "59301"
        },
        {
            "street_address": "2975 STOCKYARD RD",
            "city": "MISSOULA",
            "state": "MT",
            "zip": "59808"
        },
        {
            "street_address": "2975 STOCKYARD RD",
            "city": "MISSOULA",
            "state": "MT",
            "zip": "59808"
        },
        {
            "street_address": "400 13TH AVE S",
            "city": "GREAT FALLS",
            "state": "MT",
            "zip": "59405"
        },
        {
            "street_address": "500 15TH AVENUE SOUTH",
            "city": "GREAT FALLS",
            "state": "MT",
            "zip": "59405"
        },
        {
            "street_address": "500 15TH AVENUE SOUTH",
            "city": "GREAT FALLS",
            "state": "MT",
            "zip": "59405"
        },
        {
            "street_address": "2900 12TH AVE N",
            "city": "BILLINGS",
            "state": "MT",
            "zip": "59101"
        },
        {
            "street_address": "214 14TH AVE SW",
            "city": "SIDNEY",
            "state": "MT",
            "zip": "59270"
        },
        {
            "street_address": "3905 WELLNESS WAY",
            "city": "BOZEMAN",
            "state": "MT",
            "zip": "59718"
        },
        {
            "street_address": "2209 S STERLING ST",
            "city": "MORGANTON",
            "state": "NC",
            "zip": "28655"
        },
        {
            "street_address": "517 MOYE BLVD",
            "city": "GREENVILLE",
            "state": "NC",
            "zip": "27834"
        },
        {
            "street_address": "171 ASHLEY AVE",
            "city": "CHARLESTON",
            "state": "SC",
            "zip": "29425"
        },
        {
            "street_address": "1594 FREEDOM BLVD STE 100",
            "city": "FLORENCE",
            "state": "SC",
            "zip": "29505"
        },
        {
            "street_address": "480 COURT ST",
            "city": "BROOKLYN",
            "state": "NY",
            "zip": "11231"
        },
        {
            "street_address": "2501 WESTON PKWY",
            "city": "CARY",
            "state": "NC",
            "zip": "27513"
        },
        {
            "street_address": "1174 ALTURAS DR STE 4A",
            "city": "MOSCOW",
            "state": "ID",
            "zip": "83843"
        },
        {
            "street_address": "3024 NEW BERN AVE",
            "city": "RALEIGH",
            "state": "NC",
            "zip": "27610"
        },
        {
            "street_address": "DUKE UNIVERSITY MEDICAL CENTER ERWIN RD",
            "city": "DURHAM",
            "state": "NC",
            "zip": "27710"
        },
        {
            "street_address": "614 N BROAD ST",
            "city": "SEAGROVE",
            "state": "NC",
            "zip": "27341"
        },
        {
            "street_address": "1725 NEW HANOVER MEDICAL PARK DR",
            "city": "WILMINGTON",
            "state": "NC",
            "zip": "28403"
        },
        {
            "street_address": "13677 W MCDOWELL RD",
            "city": "GOODYEAR",
            "state": "AZ",
            "zip": "85395"
        },
        {
            "street_address": "5 FIRSTVILLAGE DRIVE",
            "city": "PINEHURST",
            "state": "NC",
            "zip": "28374"
        },
        {
            "street_address": "171 ASHLEY AVE",
            "city": "CHARLESTON",
            "state": "SC",
            "zip": "29425"
        },
        {
            "street_address": "4008 BURNETT WOMACK BUILDING",
            "city": "CHAPEL HILL",
            "state": "NC",
            "zip": "27599"
        },
        {
            "street_address": "101 MANNING DR",
            "city": "CHAPEL HILL",
            "state": "NC",
            "zip": "27514"
        },
        {
            "street_address": "13535 NEMOURS PKWY",
            "city": "ORLANDO",
            "state": "FL",
            "zip": "32827"
        },
        {
            "street_address": "2100 ERWIN RD",
            "city": "DURHAM",
            "state": "NC",
            "zip": "27705"
        },
        {
            "street_address": "2501 ATRIUM DR",
            "city": "RALEIGH",
            "state": "NC",
            "zip": "27607"
        },
        {
            "street_address": "530 NEW WAVERLY PL",
            "city": "CARY",
            "state": "NC",
            "zip": "27511"
        },
        {
            "street_address": "801 BROADWAY N",
            "city": "FARGO",
            "state": "ND",
            "zip": "58102"
        },
        {
            "street_address": "501 N COLUMBIA RD STOP 9037",
            "city": "GRAND FORKS",
            "state": "ND",
            "zip": "58202"
        },
        {
            "street_address": "801 BROADWAY N",
            "city": "FARGO",
            "state": "ND",
            "zip": "58102"
        },
        {
            "street_address": "1000 SOUTH COLUMBIA ROAD",
            "city": "GRAND FORKS",
            "state": "ND",
            "zip": "58206"
        },
        {
            "street_address": "401 N 9TH ST",
            "city": "BISMARCK",
            "state": "ND",
            "zip": "58501"
        },
        {
            "street_address": "1300 S COLUMBIA RD",
            "city": "GRAND FORKS",
            "state": "ND",
            "zip": "58201"
        },
        {
            "street_address": "1213 15TH AVE W",
            "city": "WILLISTON",
            "state": "ND",
            "zip": "58801"
        },
        {
            "street_address": "1000 HIGHWAY 12 WEST RIVER HEALTH SERVICES-",
            "city": "HETTINGER",
            "state": "ND",
            "zip": "58639"
        },
        {
            "street_address": "501 N COLUMBIA RD",
            "city": "GRAND FORKS",
            "state": "ND",
            "zip": "58202"
        },
        {
            "street_address": "612 CENTER AVE N",
            "city": "ASHLEY",
            "state": "ND",
            "zip": "58413"
        },
        {
            "street_address": "801 BROADWAY N",
            "city": "FARGO",
            "state": "ND",
            "zip": "58102"
        },
        {
            "street_address": "4141 31ST AVE S STE 105",
            "city": "FARGO",
            "state": "ND",
            "zip": "58104"
        },
        {
            "street_address": "222 N 7TH ST",
            "city": "BISMARCK",
            "state": "ND",
            "zip": "58501"
        },
        {
            "street_address": "UND SMHS DEPARTMENT OF SUGERY",
            "city": "GRAND FORKS",
            "state": "ND",
            "zip": "58202"
        },
        {
            "street_address": "801 BROADWAY N",
            "city": "FARGO",
            "state": "ND",
            "zip": "58102"
        },
        {
            "street_address": "1301 N COLUMBIA RD STOP 9037",
            "city": "GRAND FORKS",
            "state": "ND",
            "zip": "58202"
        },
        {
            "street_address": "1301 N COLUMBIA RD",
            "city": "GRAND FORKS",
            "state": "ND",
            "zip": "58202"
        },
        {
            "street_address": "1301 N COLUMBIA RD, STOP 9037",
            "city": "GRAND FORKS",
            "state": "ND",
            "zip": "58202"
        },
        {
            "street_address": "300 N 7TH ST",
            "city": "BISMARCK",
            "state": "ND",
            "zip": "58501"
        },
        {
            "street_address": "2101 ELM ST N",
            "city": "FARGO",
            "state": "ND",
            "zip": "58102"
        },
        {
            "street_address": "1000 E BROAD ST",
            "city": "RICHMOND",
            "state": "VA",
            "zip": "23219"
        },
        {
            "street_address": "988102 NEBRASKA MEDICAL CENTER",
            "city": "OMAHA",
            "state": "NE",
            "zip": "68198"
        },
        {
            "street_address": "10401 OLD GEORGETOWN ROAD",
            "city": "BETHESDA",
            "state": "MD",
            "zip": "20814"
        },
        {
            "street_address": "7710 MERCY ROAD SUITE 202",
            "city": "OMAHA",
            "state": "NE",
            "zip": "68124"
        },
        {
            "street_address": "983285 NEBRASKA MEDICAL CTR",
            "city": "OMAHA",
            "state": "NE",
            "zip": "68198"
        },
        {
            "street_address": "17404 BURKE ST STE 102",
            "city": "OMAHA",
            "state": "NE",
            "zip": "68118"
        },
        {
            "street_address": "1002 W MISSION AVE",
            "city": "BELLEVUE",
            "state": "NE",
            "zip": "68005"
        },
        {
            "street_address": "10401 OLD GEORGETOWN RD STE 208",
            "city": "BETHESDA",
            "state": "MD",
            "zip": "20814"
        },
        {
            "street_address": "7710 MERCY RD STE 202",
            "city": "OMAHA",
            "state": "NE",
            "zip": "68124"
        },
        {
            "street_address": "201 RIDGE ST",
            "city": "COUNCIL BLUFFS",
            "state": "IA",
            "zip": "51503"
        },
        {
            "street_address": "300 N 2ND ST",
            "city": "O'NEILL",
            "state": "NE",
            "zip": "68763"
        },
        {
            "street_address": "1365 CLIFTON RD NE BLDG A",
            "city": "ATLANTA",
            "state": "GA",
            "zip": "30322"
        },
        {
            "street_address": "4508 38 STREET",
            "city": "COLUMBUS",
            "state": "NE",
            "zip": "68601"
        },
        {
            "street_address": "3610 RICHMOND CIR STE 100",
            "city": "GRAND ISLAND",
            "state": "NE",
            "zip": "68803"
        },
        {
            "street_address": "800 MERCY DR",
            "city": "COUNCIL BLUFFS",
            "state": "IA",
            "zip": "51503"
        },
        {
            "street_address": "7710 MERCY RD STE 202",
            "city": "OMAHA",
            "state": "NE",
            "zip": "68124"
        },
        {
            "street_address": "715 N KANSAS AVE",
            "city": "HASTINGS",
            "state": "NE",
            "zip": "68901"
        },
        {
            "street_address": "8111 DODGE ST",
            "city": "OMAHA",
            "state": "NE",
            "zip": "68114"
        },
        {
            "street_address": "237 W WAVERLY ST",
            "city": "MORRIS",
            "state": "IL",
            "zip": "60450"
        },
        {
            "street_address": "988102 NEBRASKA MEDICAL CTR",
            "city": "OMAHA",
            "state": "NE",
            "zip": "68198"
        },
        {
            "street_address": "21 E HOLLIS ST",
            "city": "NASHUA",
            "state": "NH",
            "zip": "03060"
        },
        {
            "street_address": "2300 SOUTHWOOD DR",
            "city": "NASHUA",
            "state": "NH",
            "zip": "03063"
        },
        {
            "street_address": "185 QUEEN CITY AVE",
            "city": "MANCHESTER",
            "state": "NH",
            "zip": "03101"
        },
        {
            "street_address": "1 MEDICAL CENTER DR",
            "city": "LEBANON",
            "state": "NH",
            "zip": "03756"
        },
        {
            "street_address": "200 GRIFFIN RD",
            "city": "PORTSMOUTH",
            "state": "NH",
            "zip": "03801"
        },
        {
            "street_address": "248 PLEASANT ST STE 2800",
            "city": "CONCORD",
            "state": "NH",
            "zip": "03301"
        },
        {
            "street_address": "246 PLEASANT ST.",
            "city": "CONCORD",
            "state": "NH",
            "zip": "03301"
        },
        {
            "street_address": "10 ALICE PECK DAY DR",
            "city": "LEBANON",
            "state": "NH",
            "zip": "03766"
        },
        {
            "street_address": "1 MEDICAL CENTER DR",
            "city": "LEBANON",
            "state": "NH",
            "zip": "03756"
        },
        {
            "street_address": "25 S RIVER RD",
            "city": "BEDFORD",
            "state": "NH",
            "zip": "03110"
        },
        {
            "street_address": "1 MEDICAL CENTER DR",
            "city": "LEBANON",
            "state": "NH",
            "zip": "03756"
        },
        {
            "street_address": "3449 WILKENS AVE STE 101",
            "city": "BALTIMORE",
            "state": "MD",
            "zip": "21229"
        },
        {
            "street_address": "7 PAGE HILL RD",
            "city": "BERLIN",
            "state": "NH",
            "zip": "03570"
        },
        {
            "street_address": "500 MARKET ST UNIT 1A",
            "city": "PORTSMOUTH",
            "state": "NH",
            "zip": "03801"
        },
        {
            "street_address": "580 SAINT JOHNSBURY RD",
            "city": "LITTLETON",
            "state": "NH",
            "zip": "03561"
        },
        {
            "street_address": "7 DUNNING ST",
            "city": "CLAREMONT",
            "state": "NH",
            "zip": "03743"
        },
        {
            "street_address": "330 BORTHWICK AVE",
            "city": "PORTSMOUTH",
            "state": "NH",
            "zip": "03801"
        },
        {
            "street_address": "789 CENTRAL AVE",
            "city": "DOVER",
            "state": "NH",
            "zip": "03820"
        },
        {
            "street_address": "724 N MAIN ST",
            "city": "LACONIA",
            "state": "NH",
            "zip": "03246"
        },
        {
            "street_address": "200 HAWKINS DR",
            "city": "IOWA CITY",
            "state": "IA",
            "zip": "52242"
        },
        {
            "street_address": "1925 PACIFIC AVE",
            "city": "ATLANTIC CITY",
            "state": "NJ",
            "zip": "08401"
        },
        {
            "street_address": "3100 MACCORKLE AVE SE STE 101",
            "city": "CHARLESTON",
            "state": "WV",
            "zip": "25304"
        },
        {
            "street_address": "240 EASTON AVE FL 3",
            "city": "NEW BRUNSWICK",
            "state": "NJ",
            "zip": "08901"
        },
        {
            "street_address": "1314 PARK AVE STE 4",
            "city": "PLAINFIELD",
            "state": "NJ",
            "zip": "07060"
        },
        {
            "street_address": "5 FRANKLIN AVE",
            "city": "BELLEVILLE",
            "state": "NJ",
            "zip": "07109"
        },
        {
            "street_address": "120 MINEOLA BLVD STE 320",
            "city": "MINEOLA",
            "state": "NY",
            "zip": "11501"
        },
        {
            "street_address": "11 EVES DR",
            "city": "MARLTON",
            "state": "NJ",
            "zip": "08053"
        },
        {
            "street_address": "83 HANOVER RD STE 190",
            "city": "FLORHAM PARK",
            "state": "NJ",
            "zip": "07932"
        },
        {
            "street_address": "1542 KUSER RD",
            "city": "TRENTON",
            "state": "NJ",
            "zip": "08619"
        },
        {
            "street_address": "832 BRUNSWICK AVE",
            "city": "TRENTON",
            "state": "NJ",
            "zip": "08638"
        },
        {
            "street_address": "1 GUTHRIE SQ",
            "city": "SAYRE",
            "state": "PA",
            "zip": "18840"
        },
        {
            "street_address": "200 BOWMAN DR STE E355",
            "city": "VOORHEES",
            "state": "NJ",
            "zip": "08043"
        },
        {
            "street_address": "155 MORRIS AVE",
            "city": "SPRINGFIELD",
            "state": "NJ",
            "zip": "07081"
        },
        {
            "street_address": "222 CEDAR LN STE 201",
            "city": "TEANECK",
            "state": "NJ",
            "zip": "07666"
        },
        {
            "street_address": "705 N 8TH AVE STE 2B",
            "city": "DILLON",
            "state": "SC",
            "zip": "29536"
        },
        {
            "street_address": "2100 CORLIES AVE",
            "city": "NEPTUNE",
            "state": "NJ",
            "zip": "07753"
        },
        {
            "street_address": "1255 BROAD ST",
            "city": "CLIFTON",
            "state": "NJ",
            "zip": "07013"
        },
        {
            "street_address": "89 SPARTA AVE",
            "city": "SPARTA",
            "state": "NJ",
            "zip": "07871"
        },
        {
            "street_address": "649 MORRIS AVE",
            "city": "SPRINGFIELD",
            "state": "NJ",
            "zip": "07081"
        },
        {
            "street_address": "129 MADISON AVE",
            "city": "CRESSKILL",
            "state": "NJ",
            "zip": "07626"
        },
        {
            "street_address": "4123 MONTGOMERY BLVD. NE",
            "city": "ALBUQUERQUE",
            "state": "NM",
            "zip": "87109"
        },
        {
            "street_address": "601 W COUNTRY CLUB RD STE 201",
            "city": "ROSWELL",
            "state": "NM",
            "zip": "88201"
        },
        {
            "street_address": "550 UNIVERSITY BLVD",
            "city": "INDIANAPOLIS",
            "state": "IN",
            "zip": "46202"
        },
        {
            "street_address": "2540 S TELSHOR BLVD",
            "city": "LAS CRUCES",
            "state": "NM",
            "zip": "88011"
        },
        {
            "street_address": "601 DR MARTIN LUTHER KING JR AVE NE",
            "city": "ALBUQUERQUE",
            "state": "NM",
            "zip": "87102"
        },
        {
            "street_address": "2300 E. 30TH BLDG. B # 103",
            "city": "FARMINGTON",
            "state": "NM",
            "zip": "87401"
        },
        {
            "street_address": "2300 E 30TH ST STE 103",
            "city": "FARMINGTON",
            "state": "NM",
            "zip": "87401"
        },
        {
            "street_address": "1820 W 21ST ST",
            "city": "CLOVIS",
            "state": "NM",
            "zip": "88101"
        },
        {
            "street_address": "201 CEDAR ST SE STE 304",
            "city": "ALBUQUERQUE",
            "state": "NM",
            "zip": "87106"
        },
        {
            "street_address": "1200 RICHMOND AVE",
            "city": "HOUSTON",
            "state": "TX",
            "zip": "77006"
        },
        {
            "street_address": "601 W COUNTRY CLUB RD",
            "city": "ROSWELL",
            "state": "NM",
            "zip": "88201"
        },
        {
            "street_address": "302 SAINT CHARLES WAY",
            "city": "YORK",
            "state": "PA",
            "zip": "17402"
        },
        {
            "street_address": "1630 HOSPITAL DR",
            "city": "SANTA FE",
            "state": "NM",
            "zip": "87505"
        },
        {
            "street_address": "4351 E LOHMAN AVE STE 208",
            "city": "LAS CRUCES",
            "state": "NM",
            "zip": "88011"
        },
        {
            "street_address": "8300 CONSTITUTION AVE NE",
            "city": "ALBUQUERQUE",
            "state": "NM",
            "zip": "87110"
        },
        {
            "street_address": "601 W COUNTRY CLUB RD STE 201",
            "city": "ROSWELL",
            "state": "NM",
            "zip": "88201"
        },
        {
            "street_address": "1651 GALISTEO ST STE 6",
            "city": "SANTA FE",
            "state": "NM",
            "zip": "87505"
        },
        {
            "street_address": "612 N 13TH ST",
            "city": "ARTESIA",
            "state": "NM",
            "zip": "88210"
        },
        {
            "street_address": "838 W ELLIOT RD # 101",
            "city": "GILBERT",
            "state": "AZ",
            "zip": "85233"
        },
        {
            "street_address": "201 CEDAR ST SE",
            "city": "ALBUQUERQUE",
            "state": "NM",
            "zip": "87106"
        },
        {
            "street_address": "11 W PACIFIC AVE",
            "city": "HENDERSON",
            "state": "NV",
            "zip": "89015"
        },
        {
            "street_address": "7710 W SAHARA AVE STE 102",
            "city": "LAS VEGAS",
            "state": "NV",
            "zip": "89117"
        },
        {
            "street_address": "2255C RENAISSANCE DR",
            "city": "LAS VEGAS",
            "state": "NV",
            "zip": "89119"
        },
        {
            "street_address": "4445 S EASTERN AVE",
            "city": "LAS VEGAS",
            "state": "NV",
            "zip": "89119"
        },
        {
            "street_address": "235 W 6TH ST",
            "city": "RENO",
            "state": "NV",
            "zip": "89503"
        },
        {
            "street_address": "10755 DOUBLE R BLVD",
            "city": "RENO",
            "state": "NV",
            "zip": "89521"
        },
        {
            "street_address": "1500 E 2ND ST STE 206",
            "city": "RENO",
            "state": "NV",
            "zip": "89502"
        },
        {
            "street_address": "236 W 6TH ST STE 400",
            "city": "RENO",
            "state": "NV",
            "zip": "89503"
        },
        {
            "street_address": "343 ELM ST",
            "city": "RENO",
            "state": "NV",
            "zip": "89503"
        },
        {
            "street_address": "5380 S RAINBOW BLVD STE 110",
            "city": "LAS VEGAS",
            "state": "NV",
            "zip": "89118"
        },
        {
            "street_address": "3599 S EASTERN AVE",
            "city": "LAS VEGAS",
            "state": "NV",
            "zip": "89169"
        },
        {
            "street_address": "700 SHADOW LANE",
            "city": "LAS VEGAS",
            "state": "NV",
            "zip": "89106"
        },
        {
            "street_address": "16001 W 9 MILE RD OFC",
            "city": "SOUTHFIELD",
            "state": "MI",
            "zip": "48075"
        },
        {
            "street_address": "1500 E 2ND STREET #206",
            "city": "RENO",
            "state": "NV",
            "zip": "89502"
        },
        {
            "street_address": "689 SIERRA ROSE DR STE B",
            "city": "RENO",
            "state": "NV",
            "zip": "89511"
        },
        {
            "street_address": "3270 N BUFFALO DR",
            "city": "LAS VEGAS",
            "state": "NV",
            "zip": "89129"
        },
        {
            "street_address": "1301 BERTHA HOWE AVE",
            "city": "MESQUITE",
            "state": "NV",
            "zip": "89027"
        },
        {
            "street_address": "8872 S EASTERN AVE",
            "city": "LAS VEGAS",
            "state": "NV",
            "zip": "89123"
        },
        {
            "street_address": "2865 SIENA HEIGHTS DR",
            "city": "HENDERSON",
            "state": "NV",
            "zip": "89052"
        },
        {
            "street_address": "400 N STEPHANIE ST STE 300",
            "city": "HENDERSON",
            "state": "NV",
            "zip": "89014"
        },
        {
            "street_address": "453 ROUTE 211 E",
            "city": "MIDDLETOWN",
            "state": "NY",
            "zip": "10940"
        },
        {
            "street_address": "LOWER LEVEL",
            "city": "VALHALLA",
            "state": "NY",
            "zip": "10595"
        },
        {
            "street_address": "5 E 98TH ST FL 14",
            "city": "NEW YORK",
            "state": "NY",
            "zip": "10029"
        },
        {
            "street_address": "11 PEEKSKILL HOLLOW RD",
            "city": "PUTNAM VALLEY",
            "state": "NY",
            "zip": "10579"
        },
        {
            "street_address": "950 PARK AVE",
            "city": "NEW YORK",
            "state": "NY",
            "zip": "10028"
        },
        {
            "street_address": "2401 UNIVERSITY PKWY",
            "city": "SARASOTA",
            "state": "FL",
            "zip": "34243"
        },
        {
            "street_address": "8 RICHARD PATH",
            "city": "SAINT JAMES",
            "state": "NY",
            "zip": "11780"
        },
        {
            "street_address": "415 TREMONT ST",
            "city": "NORTH TONAWANDA",
            "state": "NY",
            "zip": "14120"
        },
        {
            "street_address": "900 NORTHERN BLVD",
            "city": "GREAT NECK",
            "state": "NY",
            "zip": "11021"
        },
        {
            "street_address": "161 FORT WASHINGTON AVE FL 8",
            "city": "NEW YORK",
            "state": "NY",
            "zip": "10032"
        },
        {
            "street_address": "585 SCHENECTADY AVENUE",
            "city": "BROOKLYN",
            "state": "NY",
            "zip": "11203"
        },
        {
            "street_address": "DEPARTMENT OF SURGERY",
            "city": "JACKSONVILLE",
            "state": "FL",
            "zip": "32209"
        },
        {
            "street_address": "173 MINEOLA BLVD STE 401",
            "city": "MINEOLA",
            "state": "NY",
            "zip": "11501"
        },
        {
            "street_address": "HSC LEVEL 18 ROOM 065",
            "city": "STONY BROOK",
            "state": "NY",
            "zip": "11794"
        },
        {
            "street_address": "1 BROOKDALE PLZ DEPT OF",
            "city": "BROOKLYN",
            "state": "NY",
            "zip": "11212"
        },
        {
            "street_address": "1400 PELHAM PKWY S",
            "city": "BRONX",
            "state": "NY",
            "zip": "10461"
        },
        {
            "street_address": "120 MINEOLA BLVD STE 320",
            "city": "MINEOLA",
            "state": "NY",
            "zip": "11501"
        },
        {
            "street_address": "525 E 68TH ST",
            "city": "NEW YORK",
            "state": "NY",
            "zip": "10065"
        },
        {
            "street_address": "MUBARAK AL-KABEER HOSPITAL",
            "city": "KUWAIT CITY",
            "state": "KWI",
            "zip": "32052"
        },
        {
            "street_address": "480 COURT ST",
            "city": "BROOKLYN",
            "state": "NY",
            "zip": "11231"
        },
        {
            "street_address": "3027 MATTHEW CIR",
            "city": "MONCLOVA",
            "state": "OH",
            "zip": "43542"
        },
        {
            "street_address": "3000 ARLINGTON AVE",
            "city": "TOLEDO",
            "state": "OH",
            "zip": "43614"
        },
        {
            "street_address": "2109 HUGHES DR STE 450",
            "city": "TOLEDO",
            "state": "OH",
            "zip": "43606"
        },
        {
            "street_address": "11100 EUCLID AVE",
            "city": "CLEVELAND",
            "state": "OH",
            "zip": "44106"
        },
        {
            "street_address": "259 E ERIE ST STE 1600",
            "city": "CHICAGO",
            "state": "IL",
            "zip": "60611"
        },
        {
            "street_address": "160 ACADEMY AVE",
            "city": "GREENWOOD",
            "state": "SC",
            "zip": "29646"
        },
        {
            "street_address": "1400 PELHAM PKWY S",
            "city": "BRONX",
            "state": "NY",
            "zip": "10461"
        },
        {
            "street_address": "1044 BELMONT AVE",
            "city": "YOUNGSTOWN",
            "state": "OH",
            "zip": "44504"
        },
        {
            "street_address": "9500 EUCLID AVE",
            "city": "CLEVELAND",
            "state": "OH",
            "zip": "44195"
        },
        {
            "street_address": "75 WASHINGTON BLVD",
            "city": "KENTON",
            "state": "OH",
            "zip": "43326"
        },
        {
            "street_address": "11100 EUCLID AVE",
            "city": "CLEVELAND",
            "state": "OH",
            "zip": "44106"
        },
        {
            "street_address": "20 MEDICAL VILLAGE DR",
            "city": "EDGEWOOD",
            "state": "KY",
            "zip": "41017"
        },
        {
            "street_address": "3219 CLIFTON AVE",
            "city": "CINCINNATI",
            "state": "OH",
            "zip": "45220"
        },
        {
            "street_address": "285 E STATE ST",
            "city": "COLUMBUS",
            "state": "OH",
            "zip": "43215"
        },
        {
            "street_address": "8433 HARCOURT ROAD",
            "city": "INDIANAPOLIS",
            "state": "IN",
            "zip": "46260"
        },
        {
            "street_address": "11100 EUCLID AVE",
            "city": "CLEVELAND",
            "state": "OH",
            "zip": "44106"
        },
        {
            "street_address": "3600 KOLBE RD STE 203",
            "city": "LORAIN",
            "state": "OH",
            "zip": "44053"
        },
        {
            "street_address": "1 AKRON GENERAL AVE",
            "city": "AKRON",
            "state": "OH",
            "zip": "44307"
        },
        {
            "street_address": "5 FIRSTVILLAGE DRIVE",
            "city": "PINEHURST",
            "state": "NC",
            "zip": "28374"
        },
        {
            "street_address": "9500 EUCLID AVE",
            "city": "CLEVELAND",
            "state": "OH",
            "zip": "44195"
        },
        {
            "street_address": "701 DELLWOOD ST S",
            "city": "CAMBRIDGE",
            "state": "MN",
            "zip": "55008"
        },
        {
            "street_address": "3400 NW EXPRESSWAY STE 700",
            "city": "OKLAHOMA CITY",
            "state": "OK",
            "zip": "73112"
        },
        {
            "street_address": "115 W 13TH ST",
            "city": "GROVE",
            "state": "OK",
            "zip": "74344"
        },
        {
            "street_address": "1921 STONECIPHER BLVD",
            "city": "ADA",
            "state": "OK",
            "zip": "74820"
        },
        {
            "street_address": "8100 S WALKER AVE BLDG A",
            "city": "OKLAHOMA CITY",
            "state": "OK",
            "zip": "73139"
        },
        {
            "street_address": "435 N MONTE VISTA ST",
            "city": "ADA",
            "state": "OK",
            "zip": "74820"
        },
        {
            "street_address": "4012 E 108TH ST",
            "city": "TULSA",
            "state": "OK",
            "zip": "74137"
        },
        {
            "street_address": "3330 NW 56TH ST.",
            "city": "OKLAHOMA CITY",
            "state": "OK",
            "zip": "73112"
        },
        {
            "street_address": "6802 S OLYMPIA AVE",
            "city": "TULSA",
            "state": "OK",
            "zip": "74132"
        },
        {
            "street_address": "5401 N PORTLAND AVE STE 540",
            "city": "OKLAHOMA CITY",
            "state": "OK",
            "zip": "73112"
        },
        {
            "street_address": "6161 S YALE AVE",
            "city": "TULSA",
            "state": "OK",
            "zip": "74136"
        },
        {
            "street_address": "1145 S UTICA AVE",
            "city": "TULSA",
            "state": "OK",
            "zip": "74104"
        },
        {
            "street_address": "435 N MONTE VISTA ST",
            "city": "ADA",
            "state": "OK",
            "zip": "74820"
        },
        {
            "street_address": "1919 S WHEELING AVE STE 600",
            "city": "TULSA",
            "state": "OK",
            "zip": "74104"
        },
        {
            "street_address": "711 STANTON L YOUNG BLVD",
            "city": "OKLAHOMA CITY",
            "state": "OK",
            "zip": "73104"
        },
        {
            "street_address": "4200 W MEMORIAL RD",
            "city": "OKLAHOMA CITY",
            "state": "OK",
            "zip": "73120"
        },
        {
            "street_address": "5404 SW LEE BLVD",
            "city": "LAWTON",
            "state": "OK",
            "zip": "73505"
        },
        {
            "street_address": "1802 E 19TH ST",
            "city": "TULSA",
            "state": "OK",
            "zip": "74104"
        },
        {
            "street_address": "6160 S YALE AVE",
            "city": "TULSA",
            "state": "OK",
            "zip": "74136"
        },
        {
            "street_address": "1021 E BRYAN AVE",
            "city": "SAPULPA",
            "state": "OK",
            "zip": "74066"
        },
        {
            "street_address": "3181 SW SAM JACKSON PARK RD",
            "city": "PORTLAND",
            "state": "OR",
            "zip": "97239"
        },
        {
            "street_address": "18475 NE SMITH RD",
            "city": "NEWBERG",
            "state": "OR",
            "zip": "97132"
        },
        {
            "street_address": "1200 GATEWAY LOOP",
            "city": "SPRINGFIELD",
            "state": "OR",
            "zip": "97477"
        },
        {
            "street_address": "2480 LIBERTY ST NE",
            "city": "SALEM",
            "state": "OR",
            "zip": "97301"
        },
        {
            "street_address": "4805 NE GLISAN ST",
            "city": "PORTLAND",
            "state": "OR",
            "zip": "97213"
        },
        {
            "street_address": "750 WASHINGTON ST",
            "city": "BOSTON",
            "state": "MA",
            "zip": "02111"
        },
        {
            "street_address": "705 ELM ST SW",
            "city": "ALBANY",
            "state": "OR",
            "zip": "97321"
        },
        {
            "street_address": "631 ELM ST SW",
            "city": "ALBANY",
            "state": "OR",
            "zip": "97321"
        },
        {
            "street_address": "1330 ROCKEFELLER AVE",
            "city": "EVERETT",
            "state": "WA",
            "zip": "98201"
        },
        {
            "street_address": "800 SW 13TH AVE",
            "city": "PORTLAND",
            "state": "OR",
            "zip": "97205"
        },
        {
            "street_address": "9701 SW BARNES RD",
            "city": "PORTLAND",
            "state": "OR",
            "zip": "97225"
        },
        {
            "street_address": "4805 NE GLISAN ST",
            "city": "PORTLAND",
            "state": "OR",
            "zip": "97213"
        },
        {
            "street_address": "520 MEDICAL CENTER DR STE 300",
            "city": "MEDFORD",
            "state": "OR",
            "zip": "97504"
        },
        {
            "street_address": "655 WINTER ST SE",
            "city": "SALEM",
            "state": "OR",
            "zip": "97301"
        },
        {
            "street_address": "3303 SW BOND AVE # CH5E",
            "city": "PORTLAND",
            "state": "OR",
            "zip": "97239"
        },
        {
            "street_address": "2450 NE MARY ROSE PL",
            "city": "BEND",
            "state": "OR",
            "zip": "97701"
        },
        {
            "street_address": "1200 S CEDAR CREST BLVD",
            "city": "ALLENTOWN",
            "state": "PA",
            "zip": "18103"
        },
        {
            "street_address": "431 NE REVERE AVE",
            "city": "BEND",
            "state": "OR",
            "zip": "97701"
        },
        {
            "street_address": "3181 SW SAM JACKSON PARK RD",
            "city": "PORTLAND",
            "state": "OR",
            "zip": "97239"
        },
        {
            "street_address": "728 MOLALLA AVE",
            "city": "OREGON CITY",
            "state": "OR",
            "zip": "97045"
        },
        {
            "street_address": "325 N 5TH ST",
            "city": "ALLENTOWN",
            "state": "PA",
            "zip": "18102"
        },
        {
            "street_address": "161 FORT WASHINGTON AVE FL 8",
            "city": "NEW YORK",
            "state": "NY",
            "zip": "10032"
        },
        {
            "street_address": "1 MAIN ST",
            "city": "WELLSBORO",
            "state": "PA",
            "zip": "16901"
        },
        {
            "street_address": "1300 WOLF ST",
            "city": "PHILADELPHIA",
            "state": "PA",
            "zip": "19148"
        },
        {
            "street_address": "4815 LIBERTY AVE STE M02",
            "city": "PITTSBURGH",
            "state": "PA",
            "zip": "15224"
        },
        {
            "street_address": "333 COTTMAN AVE",
            "city": "PHILADELPHIA",
            "state": "PA",
            "zip": "19111"
        },
        {
            "street_address": "2494 BERNVILLE RD",
            "city": "READING",
            "state": "PA",
            "zip": "19605"
        },
        {
            "street_address": "1651B N MAIN ST",
            "city": "BUTLER",
            "state": "PA",
            "zip": "16001"
        },
        {
            "street_address": "1400 PELHAM PKWY S",
            "city": "BRONX",
            "state": "NY",
            "zip": "10461"
        },
        {
            "street_address": "1000 E BROAD ST",
            "city": "RICHMOND",
            "state": "VA",
            "zip": "23219"
        },
        {
            "street_address": "100 N ACADEMY AVE",
            "city": "DANVILLE",
            "state": "PA",
            "zip": "17822"
        },
        {
            "street_address": "200 LOTHROP ST",
            "city": "PITTSBURGH",
            "state": "PA",
            "zip": "15213"
        },
        {
            "street_address": "100 EXCELA HEALTH DRIVE SUITE 202",
            "city": "LATROBE",
            "state": "PA",
            "zip": "15650"
        },
        {
            "street_address": "2701 BLAIR MILL RD STE 17",
            "city": "WILLOW GROVE",
            "state": "PA",
            "zip": "19090"
        },
        {
            "street_address": "2100 N BROAD ST",
            "city": "LANSDALE",
            "state": "PA",
            "zip": "19446"
        },
        {
            "street_address": "1200 OLD YORK RD",
            "city": "ABINGTON",
            "state": "PA",
            "zip": "19001"
        },
        {
            "street_address": "1200 OLD YORK RD",
            "city": "ABINGTON",
            "state": "PA",
            "zip": "19001"
        },
        {
            "street_address": "1245 HIGHLAND AVE",
            "city": "ABINGTON",
            "state": "PA",
            "zip": "19001"
        },
        {
            "street_address": "902 N BROAD ST",
            "city": "LANSDALE",
            "state": "PA",
            "zip": "19446"
        },
        {
            "street_address": "225 NEWTOWN RD",
            "city": "WARMINSTER",
            "state": "PA",
            "zip": "18974"
        },
        {
            "street_address": "2 DUDLEY ST",
            "city": "PROVIDENCE",
            "state": "RI",
            "zip": "02905"
        },
        {
            "street_address": "725 RESERVOIR AVE",
            "city": "CRANSTON",
            "state": "RI",
            "zip": "02910"
        },
        {
            "street_address": "2 DUDLEY ST",
            "city": "PROVIDENCE",
            "state": "RI",
            "zip": "02905"
        },
        {
            "street_address": "455 TOLL GATE RD",
            "city": "WARWICK",
            "state": "RI",
            "zip": "02886"
        },
        {
            "street_address": "2 DUDLEY ST STE 190",
            "city": "PROVIDENCE",
            "state": "RI",
            "zip": "02905"
        },
        {
            "street_address": "20 CUMBERLAND HILL RD",
            "city": "WOONSOCKET",
            "state": "RI",
            "zip": "02895"
        },
        {
            "street_address": "825 CHALKSTONE AVE",
            "city": "PROVIDENCE",
            "state": "RI",
            "zip": "02908"
        },
        {
            "street_address": "100 HIGHLAND AVE",
            "city": "PROVIDENCE",
            "state": "RI",
            "zip": "02906"
        },
        {
            "street_address": "680 CENTRE ST",
            "city": "BROCKTON",
            "state": "MA",
            "zip": "02302"
        },
        {
            "street_address": "2 DUDLEY ST",
            "city": "PROVIDENCE",
            "state": "RI",
            "zip": "02905"
        },
        {
            "street_address": "2 DUDLEY ST STE 174",
            "city": "PROVIDENCE",
            "state": "RI",
            "zip": "02905"
        },
        {
            "street_address": "25 WELLS ST",
            "city": "WESTERLY",
            "state": "RI",
            "zip": "02891"
        },
        {
            "street_address": "2 DUDLEY ST STE 370",
            "city": "PROVIDENCE",
            "state": "RI",
            "zip": "02905"
        },
        {
            "street_address": "2 DUDLEY ST",
            "city": "PROVIDENCE",
            "state": "RI",
            "zip": "02905"
        },
        {
            "street_address": "200 HIGH SERVICE AVE",
            "city": "NORTH PROVIDENCE",
            "state": "RI",
            "zip": "02904"
        },
        {
            "street_address": "195 COLLYER ST STE 201",
            "city": "PROVIDENCE",
            "state": "RI",
            "zip": "02904"
        },
        {
            "street_address": "593 EDDY ST",
            "city": "PROVIDENCE",
            "state": "RI",
            "zip": "02903"
        },
        {
            "street_address": "593 EDDY ST",
            "city": "PROVIDENCE",
            "state": "RI",
            "zip": "02903"
        },
        {
            "street_address": "668 EDDY ST",
            "city": "PROVIDENCE",
            "state": "RI",
            "zip": "02903"
        },
        {
            "street_address": "593 EDDY ST",
            "city": "PROVIDENCE",
            "state": "RI",
            "zip": "02903"
        },
        {
            "street_address": "131 HOLIDAY RD",
            "city": "MC CORMICK",
            "state": "SC",
            "zip": "29835"
        },
        {
            "street_address": "901 W GREENWOOD ST STE 1",
            "city": "ABBEVILLE",
            "state": "SC",
            "zip": "29620"
        },
        {
            "street_address": "171 ASHLEY AVE",
            "city": "CHARLESTON",
            "state": "SC",
            "zip": "29425"
        },
        {
            "street_address": "1594 FREEDOM BLVD STE 100",
            "city": "FLORENCE",
            "state": "SC",
            "zip": "29505"
        },
        {
            "street_address": "160 ACADEMY AVE",
            "city": "GREENWOOD",
            "state": "SC",
            "zip": "29646"
        },
        {
            "street_address": "48 CROSS PARK CT",
            "city": "GREENVILLE",
            "state": "SC",
            "zip": "29605"
        },
        {
            "street_address": "3 RICHLAND MEDICAL PARK DR STE 330",
            "city": "COLUMBIA",
            "state": "SC",
            "zip": "29203"
        },
        {
            "street_address": "171 ASHLEY AVE",
            "city": "CHARLESTON",
            "state": "SC",
            "zip": "29425"
        },
        {
            "street_address": "705 N 8TH AVE STE 2B",
            "city": "DILLON",
            "state": "SC",
            "zip": "29536"
        },
        {
            "street_address": "9 RICHLAND MEDICAL PARK DR",
            "city": "COLUMBIA",
            "state": "SC",
            "zip": "29203"
        },
        {
            "street_address": "3150 HIGHWAY 153",
            "city": "PIEDMONT",
            "state": "SC",
            "zip": "29673"
        },
        {
            "street_address": "860 PARRIS ISLAND GTWY",
            "city": "BEAUFORT",
            "state": "SC",
            "zip": "29906"
        },
        {
            "street_address": "701 GROVE RD",
            "city": "GREENVILLE",
            "state": "SC",
            "zip": "29605"
        },
        {
            "street_address": "707 6TH ST",
            "city": "GAFFNEY",
            "state": "SC",
            "zip": "29340"
        },
        {
            "street_address": "420 SOCIETY HILL DR STE 200",
            "city": "AIKEN",
            "state": "SC",
            "zip": "29803"
        },
        {
            "street_address": "410 UNIVERSITY PKWY",
            "city": "AIKEN",
            "state": "SC",
            "zip": "29801"
        },
        {
            "street_address": "690 MEDICAL PARK DR",
            "city": "AIKEN",
            "state": "SC",
            "zip": "29801"
        },
        {
            "street_address": "1501 N CAMPBELL AVE RM 4334",
            "city": "TUCSON",
            "state": "AZ",
            "zip": "85724"
        },
        {
            "street_address": "1350 HICKORY ST",
            "city": "MELBOURNE",
            "state": "FL",
            "zip": "32901"
        },
        {
            "street_address": "2145 HENRY TECKLENBURG DR STE 100",
            "city": "CHARLESTON",
            "state": "SC",
            "zip": "29414"
        },
        {
            "street_address": "806 8TH ST",
            "city": "SPRINGFIELD",
            "state": "SD",
            "zip": "57062"
        },
        {
            "street_address": "310 S PENN ST",
            "city": "ABERDEEN",
            "state": "SD",
            "zip": "57401"
        },
        {
            "street_address": "1635 CAREGIVER CIR",
            "city": "RAPID CITY",
            "state": "SD",
            "zip": "57702"
        },
        {
            "street_address": "1680 DIAGONAL RD",
            "city": "WORTHINGTON",
            "state": "MN",
            "zip": "56187"
        },
        {
            "street_address": "1601 SIOUX VALLEY DR",
            "city": "LUVERNE",
            "state": "MN",
            "zip": "56156"
        },
        {
            "street_address": "1420 N 10TH ST",
            "city": "SPEARFISH",
            "state": "SD",
            "zip": "57783"
        },
        {
            "street_address": "705 SIOUX POINT RD",
            "city": "DAKOTA DUNES",
            "state": "SD",
            "zip": "57049"
        },
        {
            "street_address": "801 BROADWAY N",
            "city": "FARGO",
            "state": "ND",
            "zip": "58102"
        },
        {
            "street_address": "1417 S CLIFF AVE STE 200",
            "city": "SIOUX FALLS",
            "state": "SD",
            "zip": "57105"
        },
        {
            "street_address": "1200 S 7TH AVE",
            "city": "SIOUX FALLS",
            "state": "SD",
            "zip": "57105"
        },
        {
            "street_address": "1000 E 23RD ST STE 360",
            "city": "SIOUX FALLS",
            "state": "SD",
            "zip": "57105"
        },
        {
            "street_address": "1900 GRASSLAND DR",
            "city": "MITCHELL",
            "state": "SD",
            "zip": "57301"
        },
        {
            "street_address": "201 S LLOYD ST",
            "city": "ABERDEEN",
            "state": "SD",
            "zip": "57401"
        },
        {
            "street_address": "4141 31ST AVE S STE 105",
            "city": "FARGO",
            "state": "ND",
            "zip": "58104"
        },
        {
            "street_address": "222 N 7TH ST",
            "city": "BISMARCK",
            "state": "ND",
            "zip": "58501"
        },
        {
            "street_address": "4520 W 69TH ST",
            "city": "SIOUX FALLS",
            "state": "SD",
            "zip": "57108"
        },
        {
            "street_address": "1305 W 18TH ST",
            "city": "SIOUX FALLS",
            "state": "SD",
            "zip": "57105"
        },
        {
            "street_address": "1445 NORTH AVE",
            "city": "SPEARFISH",
            "state": "SD",
            "zip": "57783"
        },
        {
            "street_address": "112 SAINT OLAF AVE S",
            "city": "CANBY",
            "state": "MN",
            "zip": "56220"
        },
        {
            "street_address": "908 N HOWARD AVE STE 108",
            "city": "GRAND ISLAND",
            "state": "NE",
            "zip": "68803"
        },
        {
            "street_address": "7425 ZIEGLER RD STE 101",
            "city": "CHATTANOOGA",
            "state": "TN",
            "zip": "37421"
        },
        {
            "street_address": "10810 PARKSIDE DR",
            "city": "KNOXVILLE",
            "state": "TN",
            "zip": "37934"
        },
        {
            "street_address": "576 FORT LOUDOUN MEDICAL CENTER DR",
            "city": "LENOIR CITY",
            "state": "TN",
            "zip": "37772"
        },
        {
            "street_address": "262 DANNY THOMAS PL",
            "city": "MEMPHIS",
            "state": "TN",
            "zip": "38105"
        },
        {
            "street_address": "1030 JEFFERSON AVE",
            "city": "MEMPHIS",
            "state": "TN",
            "zip": "38104"
        },
        {
            "street_address": "3219 CLIFTON AVE",
            "city": "CINCINNATI",
            "state": "OH",
            "zip": "45220"
        },
        {
            "street_address": "3601 THE VANDERBILT CLINIC",
            "city": "NASHVILLE",
            "state": "TN",
            "zip": "37232"
        },
        {
            "street_address": "112 W ROSS BLVD STE C",
            "city": "DODGE CITY",
            "state": "KS",
            "zip": "67801"
        },
        {
            "street_address": "1211 21ST AVE S",
            "city": "NASHVILLE",
            "state": "TN",
            "zip": "37212"
        },
        {
            "street_address": "9217 PARK WEST BLVD",
            "city": "KNOXVILLE",
            "state": "TN",
            "zip": "37923"
        },
        {
            "street_address": "1130 DOW ST",
            "city": "MURFREESBORO",
            "state": "TN",
            "zip": "37130"
        },
        {
            "street_address": "4320 BALL CAMP PIKE STE A",
            "city": "KNOXVILLE",
            "state": "TN",
            "zip": "37921"
        },
        {
            "street_address": "BAPTIST MEMORIAL HOSPITAL",
            "city": "MEMPHIS",
            "state": "TN",
            "zip": "38120"
        },
        {
            "street_address": "502 W MAIN ST",
            "city": "LIVINGSTON",
            "state": "TN",
            "zip": "38570"
        },
        {
            "street_address": "877 JEFFERSON AVE",
            "city": "MEMPHIS",
            "state": "TN",
            "zip": "38103"
        },
        {
            "street_address": "607 W DUE WEST AVE STE 102",
            "city": "MADISON",
            "state": "TN",
            "zip": "37115"
        },
        {
            "street_address": "1114 GALLATIN PIKE N",
            "city": "MADISON",
            "state": "TN",
            "zip": "37115"
        },
        {
            "street_address": "3601 THE VANDERBILT CLINIC",
            "city": "NASHVILLE",
            "state": "TN",
            "zip": "37232"
        },
        {
            "street_address": "1265 UNION AVE, 2 SHORB TOWER",
            "city": "MEMPHIS",
            "state": "TN",
            "zip": "38104"
        },
        {
            "street_address": "2996 KATE BOND RD",
            "city": "BARTLETT",
            "state": "TN",
            "zip": "38133"
        },
        {
            "street_address": "8080 STATE HIGHWAY 121 STE 120",
            "city": "MCKINNEY",
            "state": "TX",
            "zip": "75070"
        },
        {
            "street_address": "7500 N MESA ST",
            "city": "EL PASO",
            "state": "TX",
            "zip": "79912"
        },
        {
            "street_address": "7777 FOREST LN STE C637",
            "city": "DALLAS",
            "state": "TX",
            "zip": "75230"
        },
        {
            "street_address": "7777 FOREST LN",
            "city": "DALLAS",
            "state": "TX",
            "zip": "75230"
        },
        {
            "street_address": "1540 WEST GOODWIN STREET",
            "city": "PLEASANTON",
            "state": "TX",
            "zip": "78064"
        },
        {
            "street_address": "302 W GULF BANK RD STE B",
            "city": "HOUSTON",
            "state": "TX",
            "zip": "77037"
        },
        {
            "street_address": "5012 S US HIGHWAY 75",
            "city": "DENISON",
            "state": "TX",
            "zip": "75020"
        },
        {
            "street_address": "6309 PRESTON RD",
            "city": "PLANO",
            "state": "TX",
            "zip": "75024"
        },
        {
            "street_address": "1410 MEDICAL PKWY",
            "city": "CEDAR PARK",
            "state": "TX",
            "zip": "78613"
        },
        {
            "street_address": "8300 FLOYD CURL DR",
            "city": "SAN ANTONIO",
            "state": "TX",
            "zip": "78229"
        },
        {
            "street_address": "12200 PARK CENTRAL DR STE 400",
            "city": "DALLAS",
            "state": "TX",
            "zip": "75251"
        },
        {
            "street_address": "4211 JOE RAMSEY BLVD E STE 100",
            "city": "GREENVILLE",
            "state": "TX",
            "zip": "75401"
        },
        {
            "street_address": "4383 MEDICAL DR STE 126",
            "city": "SAN ANTONIO",
            "state": "TX",
            "zip": "78229"
        },
        {
            "street_address": "7501 LAKEVIEW PKWY",
            "city": "ROWLETT",
            "state": "TX",
            "zip": "75088"
        },
        {
            "street_address": "5323 HARRY HINES BOULEVARD",
            "city": "DALLAS",
            "state": "TX",
            "zip": "75390"
        },
        {
            "street_address": "5323 HARRY HINES BLVD",
            "city": "DALLAS",
            "state": "TX",
            "zip": "75390"
        },
        {
            "street_address": "525 E 68TH ST",
            "city": "NEW YORK",
            "state": "NY",
            "zip": "10065"
        },
        {
            "street_address": "17510 W GRAND PKWY S STE 490",
            "city": "SUGAR LAND",
            "state": "TX",
            "zip": "77479"
        },
        {
            "street_address": "1000 E BROAD ST",
            "city": "RICHMOND",
            "state": "VA",
            "zip": "23219"
        },
        {
            "street_address": "14731 STANFORD CT",
            "city": "DALLAS",
            "state": "TX",
            "zip": "75254"
        },
        {
            "street_address": "3903 HARRISON BLVD",
            "city": "OGDEN",
            "state": "UT",
            "zip": "84403"
        },
        {
            "street_address": "900 ROUND VALLEY DR",
            "city": "PARK CITY",
            "state": "UT",
            "zip": "84060"
        },
        {
            "street_address": "30 N 1900 E RM 3B324",
            "city": "SALT LAKE CITY",
            "state": "UT",
            "zip": "84132"
        },
        {
            "street_address": "6321 S REDWOOD RD STE 102",
            "city": "TAYLORSVILLE",
            "state": "UT",
            "zip": "84123"
        },
        {
            "street_address": "1160 E 3900 S",
            "city": "SALT LAKE CITY",
            "state": "UT",
            "zip": "84124"
        },
        {
            "street_address": "DIVISION OF PLASTIC SURGERY ADMINISTRATIVE OFFICE",
            "city": "SALT LAKE CITY",
            "state": "UT",
            "zip": "84132"
        },
        {
            "street_address": "3903 HARRISON BLVD.",
            "city": "OGDEN",
            "state": "UT",
            "zip": "84403"
        },
        {
            "street_address": "1221 MADISON ST",
            "city": "SEATTLE",
            "state": "WA",
            "zip": "98104"
        },
        {
            "street_address": "800 N JUSTICE ST",
            "city": "HENDERSONVILLE",
            "state": "NC",
            "zip": "28791"
        },
        {
            "street_address": "50 N MEDICAL DR",
            "city": "SALT LAKE CITY",
            "state": "UT",
            "zip": "84132"
        },
        {
            "street_address": "50 N MEDICAL DR",
            "city": "SALT LAKE CITY",
            "state": "UT",
            "zip": "84132"
        },
        {
            "street_address": "9720 SOUTH 1300 EAST",
            "city": "SANDY",
            "state": "UT",
            "zip": "84094"
        },
        {
            "street_address": "1000 N MAIN ST",
            "city": "RICHFIELD",
            "state": "UT",
            "zip": "84701"
        },
        {
            "street_address": "24 S 1100 E",
            "city": "SALT LAKE CITY",
            "state": "UT",
            "zip": "84102"
        },
        {
            "street_address": "205 26TH ST",
            "city": "OGDEN",
            "state": "UT",
            "zip": "84401"
        },
        {
            "street_address": "1300 N 500 E",
            "city": "LOGAN",
            "state": "UT",
            "zip": "84341"
        },
        {
            "street_address": "1350 N 500 E",
            "city": "LOGAN",
            "state": "UT",
            "zip": "84341"
        },
        {
            "street_address": "5169 COTTONWOOD ST STE 410",
            "city": "MURRAY",
            "state": "UT",
            "zip": "84107"
        },
        {
            "street_address": "1395 NO. 400 E.",
            "city": "LOGAN",
            "state": "UT",
            "zip": "84341"
        },
        {
            "street_address": "48 W 1500 N",
            "city": "NEPHI",
            "state": "UT",
            "zip": "84648"
        },
        {
            "street_address": "1000 E BROAD ST",
            "city": "RICHMOND",
            "state": "VA",
            "zip": "23219"
        },
        {
            "street_address": "5450 FORT ST",
            "city": "TRENTON",
            "state": "MI",
            "zip": "48183"
        },
        {
            "street_address": "44055 RIVERSIDE PKWY STE 108",
            "city": "LEESBURG",
            "state": "VA",
            "zip": "20176"
        },
        {
            "street_address": "351 COURT ST",
            "city": "ABINGDON",
            "state": "VA",
            "zip": "24210"
        },
        {
            "street_address": "16000 JOHNSTON MEMORIAL DR STE 101",
            "city": "ABINGDON",
            "state": "VA",
            "zip": "24211"
        },
        {
            "street_address": "6501 LOISDALE CT",
            "city": "SPRINGFIELD",
            "state": "VA",
            "zip": "22150"
        },
        {
            "street_address": "1250 E MARSHALL ST",
            "city": "RICHMOND",
            "state": "VA",
            "zip": "23298"
        },
        {
            "street_address": "1300 JEFFERSON PARK AVE",
            "city": "CHARLOTTESVILLE",
            "state": "VA",
            "zip": "22903"
        },
        {
            "street_address": "1900 ELECTRIC RD",
            "city": "SALEM",
            "state": "VA",
            "zip": "24153"
        },
        {
            "street_address": "3300 GALLOWS RD",
            "city": "FALLS CHURCH",
            "state": "VA",
            "zip": "22042"
        },
        {
            "street_address": "160 KINGSLEY LN",
            "city": "NORFOLK",
            "state": "VA",
            "zip": "23505"
        },
        {
            "street_address": "1906 BELLEVIEW AVE SE",
            "city": "ROANOKE",
            "state": "VA",
            "zip": "24014"
        },
        {
            "street_address": "1240 LEE ST",
            "city": "CHARLOTTESVILLE",
            "state": "VA",
            "zip": "22908"
        },
        {
            "street_address": "2085 LYNNHAVEN PKWY STE 106-308",
            "city": "VIRGINIA BEACH",
            "state": "VA",
            "zip": "23456"
        },
        {
            "street_address": "UVA HOSPITAL",
            "city": "CHARLOTTESVILLE",
            "state": "VA",
            "zip": "22908"
        },
        {
            "street_address": "3299 WOODBURN RD",
            "city": "ANNANDALE",
            "state": "VA",
            "zip": "22003"
        },
        {
            "street_address": "3 RIVERSIDE CIR",
            "city": "ROANOKE",
            "state": "VA",
            "zip": "24016"
        },
        {
            "street_address": "3 RIVERSIDE CIR",
            "city": "ROANOKE",
            "state": "VA",
            "zip": "24016"
        },
        {
            "street_address": "10535 CRESTWOOD DR",
            "city": "MANASSAS",
            "state": "VA",
            "zip": "20109"
        },
        {
            "street_address": "8988 LORTON STATION BLVD",
            "city": "LORTON",
            "state": "VA",
            "zip": "22079"
        },
        {
            "street_address": "111 COLCHESTER AVE",
            "city": "BURLINGTON",
            "state": "VT",
            "zip": "05401"
        },
        {
            "street_address": "111 COLCHESTER AVE.",
            "city": "BURLINGTON",
            "state": "VT",
            "zip": "05401"
        },
        {
            "street_address": "111 COLCHESTER AVE",
            "city": "BURLINGTON",
            "state": "VT",
            "zip": "05401"
        },
        {
            "street_address": "38 STATE FARM RD FL 1",
            "city": "WATERBURY",
            "state": "VT",
            "zip": "05676"
        },
        {
            "street_address": "FISHER ROAD",
            "city": "BARRE",
            "state": "VT",
            "zip": "05641"
        },
        {
            "street_address": "25 RIDGEWOOD RD",
            "city": "SPRINGFIELD",
            "state": "VT",
            "zip": "05156"
        },
        {
            "street_address": "111 COLCHESTER AVE",
            "city": "BURLINGTON",
            "state": "VT",
            "zip": "05401"
        },
        {
            "street_address": "111 COLCHESTER AVE",
            "city": "BURLINGTON",
            "state": "VT",
            "zip": "05401"
        },
        {
            "street_address": "140 HOSPITAL DR",
            "city": "BENNINGTON",
            "state": "VT",
            "zip": "05201"
        },
        {
            "street_address": "111 COLCHESTER AVE",
            "city": "BURLINGTON",
            "state": "VT",
            "zip": "05401"
        },
        {
            "street_address": "111 COLCHESTER AVE.",
            "city": "BURLINGTON",
            "state": "VT",
            "zip": "05401"
        },
        {
            "street_address": "19 BELMONT AVE",
            "city": "BRATTLEBORO",
            "state": "VT",
            "zip": "05301"
        },
        {
            "street_address": "111 COLCHESTER AVE",
            "city": "BURLINGTON",
            "state": "VT",
            "zip": "05401"
        },
        {
            "street_address": "17 BELMONT AVE",
            "city": "BRATTLEBORO",
            "state": "VT",
            "zip": "05301"
        },
        {
            "street_address": "3270 AIRPORT ROAD BERLIN",
            "city": "BARRE",
            "state": "VT",
            "zip": "05641"
        },
        {
            "street_address": "111 COLCHESTER AVE",
            "city": "BURLINGTON",
            "state": "VT",
            "zip": "05401"
        },
        {
            "street_address": "130 FISHER RD",
            "city": "BERLIN",
            "state": "VT",
            "zip": "05602"
        },
        {
            "street_address": "130 FISHER RD",
            "city": "BERLIN",
            "state": "VT",
            "zip": "05602"
        },
        {
            "street_address": "111 COLCHESTER AVE",
            "city": "BURLINGTON",
            "state": "VT",
            "zip": "05401"
        },
        {
            "street_address": "1MEDICAL CENTER DR",
            "city": "LEBANON",
            "state": "NH",
            "zip": "03755"
        },
        {
            "street_address": "105 W 8TH AVE",
            "city": "SPOKANE",
            "state": "WA",
            "zip": "99204"
        },
        {
            "street_address": "1430 SUMMIT AVE",
            "city": "SEATTLE",
            "state": "WA",
            "zip": "98122"
        },
        {
            "street_address": "10317 122ND ST E",
            "city": "PUYALLUP",
            "state": "WA",
            "zip": "98374"
        },
        {
            "street_address": "500 W BROADWAY ST",
            "city": "MISSOULA",
            "state": "MT",
            "zip": "59802"
        },
        {
            "street_address": "217 W CATALDO AVE FL 2",
            "city": "SPOKANE",
            "state": "WA",
            "zip": "99201"
        },
        {
            "street_address": "311 S L ST",
            "city": "TACOMA",
            "state": "WA",
            "zip": "98405"
        },
        {
            "street_address": "530 S COWLEY ST STE 180",
            "city": "SPOKANE",
            "state": "WA",
            "zip": "99202"
        },
        {
            "street_address": "1225 CAMPBELL WAY",
            "city": "BREMERTON",
            "state": "WA",
            "zip": "98310"
        },
        {
            "street_address": "6511 NE 138TH PL",
            "city": "KIRKLAND",
            "state": "WA",
            "zip": "98034"
        },
        {
            "street_address": "1959 NE PACIFIC ST",
            "city": "SEATTLE",
            "state": "WA",
            "zip": "98195"
        },
        {
            "street_address": "1201 W LA VETA AVE",
            "city": "ORANGE",
            "state": "CA",
            "zip": "92868"
        },
        {
            "street_address": "217 W CATALDO AVE FL 3",
            "city": "SPOKANE",
            "state": "WA",
            "zip": "99201"
        },
        {
            "street_address": "1100 GOETHALS DRIVE, 2ND FLOOR",
            "city": "RICHLAND",
            "state": "WA",
            "zip": "99352"
        },
        {
            "street_address": "1221 MADISON ST",
            "city": "SEATTLE",
            "state": "WA",
            "zip": "98104"
        },
        {
            "street_address": "7315 212TH ST SW STE 201",
            "city": "EDMONDS",
            "state": "WA",
            "zip": "98026"
        },
        {
            "street_address": "1330 ROCKEFELLER AVE",
            "city": "EVERETT",
            "state": "WA",
            "zip": "98201"
        },
        {
            "street_address": "2211 E MILL PLAIN BLVD",
            "city": "VANCOUVER",
            "state": "WA",
            "zip": "98661"
        },
        {
            "street_address": "4815 N ASSEMBLY ST",
            "city": "SPOKANE",
            "state": "WA",
            "zip": "99205"
        },
        {
            "street_address": "2323 CRYSTAL SPRINGS RD W",
            "city": "UNIVERSITY PLACE",
            "state": "WA",
            "zip": "98466"
        },
        {
            "street_address": "703 BROADWAY ST STE 700",
            "city": "VANCOUVER",
            "state": "WA",
            "zip": "98660"
        },
        {
            "street_address": "2251 N SHORE DR",
            "city": "RHINELANDER",
            "state": "WI",
            "zip": "54501"
        },
        {
            "street_address": "600 HIGHLAND AVE",
            "city": "MADISON",
            "state": "WI",
            "zip": "53792"
        },
        {
            "street_address": "2600 65TH AVENUE",
            "city": "OSCEOLA",
            "state": "WI",
            "zip": "54020"
        },
        {
            "street_address": "500 W BROADWAY ST",
            "city": "MISSOULA",
            "state": "MT",
            "zip": "59802"
        },
        {
            "street_address": "451 JUNCTION RD",
            "city": "MADISON",
            "state": "WI",
            "zip": "53717"
        },
        {
            "street_address": "833 S IOWA ST",
            "city": "DODGEVILLE",
            "state": "WI",
            "zip": "53533"
        },
        {
            "street_address": "2605 DEVELOPMENT DR",
            "city": "GREEN BAY",
            "state": "WI",
            "zip": "54311"
        },
        {
            "street_address": "202 SO PARK ST",
            "city": "MADISON",
            "state": "WI",
            "zip": "53715"
        },
        {
            "street_address": "3003 W GOOD HOPE RD",
            "city": "MILWAUKEE",
            "state": "WI",
            "zip": "53209"
        },
        {
            "street_address": "10101 W WISCONSIN AVE",
            "city": "WAUWATOSA",
            "state": "WI",
            "zip": "53226"
        },
        {
            "street_address": "W 231 N1440 CORPORATE CT",
            "city": "WAUKESHA",
            "state": "WI",
            "zip": "53186"
        },
        {
            "street_address": "9200 W WISCONSIN AVE",
            "city": "MILWAUKEE",
            "state": "WI",
            "zip": "53226"
        },
        {
            "street_address": "UW HOSPITAL AND CLINICS",
            "city": "MADISON",
            "state": "WI",
            "zip": "53792"
        },
        {
            "street_address": "600 HIGHLAND AVE",
            "city": "MADISON",
            "state": "WI",
            "zip": "53792"
        },
        {
            "street_address": "420 E DIVISION ST",
            "city": "FOND DU LAC",
            "state": "WI",
            "zip": "54935"
        },
        {
            "street_address": "1715 DOUSMAN ST",
            "city": "GREEN BAY",
            "state": "WI",
            "zip": "54303"
        },
        {
            "street_address": "1000 N OAK AVE",
            "city": "MARSHFIELD",
            "state": "WI",
            "zip": "54449"
        },
        {
            "street_address": "9000 W WISCONSIN AVE",
            "city": "MILWAUKEE",
            "state": "WI",
            "zip": "53226"
        },
        {
            "street_address": "600 HIGHLAND AVE",
            "city": "MADISON",
            "state": "WI",
            "zip": "53792"
        },
        {
            "street_address": "309 W JOHNSON ST",
            "city": "MADISON",
            "state": "WI",
            "zip": "53703"
        },
        {
            "street_address": "3100 MACCORKLE AVE SE STE 101",
            "city": "CHARLESTON",
            "state": "WV",
            "zip": "25304"
        },
        {
            "street_address": "1600 MEDICAL CENTER DR",
            "city": "HUNTINGTON",
            "state": "WV",
            "zip": "25701"
        },
        {
            "street_address": "1 MEDICAL CENTER DR",
            "city": "MORGANTOWN",
            "state": "WV",
            "zip": "26506"
        },
        {
            "street_address": "415 MORRIS ST",
            "city": "CHARLESTON",
            "state": "WV",
            "zip": "25301"
        },
        {
            "street_address": "3200 MACCORKLE AVE SE FL 4",
            "city": "CHARLESTON",
            "state": "WV",
            "zip": "25304"
        },
        {
            "street_address": "3110 MACCORKLE AVE SE",
            "city": "CHARLESTON",
            "state": "WV",
            "zip": "25304"
        },
        {
            "street_address": "601 NATIONAL ROAD",
            "city": "WHEELING",
            "state": "WV",
            "zip": "26003"
        },
        {
            "street_address": "775 POLE LINE RD W STE 213",
            "city": "TWIN FALLS",
            "state": "ID",
            "zip": "83301"
        },
        {
            "street_address": "527 MEDICAL PARK DR STE 501",
            "city": "BRIDGEPORT",
            "state": "WV",
            "zip": "26330"
        },
        {
            "street_address": "1600 MEDICAL CENTER DR STE 2500",
            "city": "HUNTINGTON",
            "state": "WV",
            "zip": "25701"
        },
        {
            "street_address": "510 CHERRY ST",
            "city": "BLUEFIELD",
            "state": "WV",
            "zip": "24701"
        },
        {
            "street_address": "250 STANAFORD RD",
            "city": "BECKLEY",
            "state": "WV",
            "zip": "25801"
        },
        {
            "street_address": "1880 AMHERST ST STE 300",
            "city": "WINCHESTER",
            "state": "VA",
            "zip": "22601"
        },
        {
            "street_address": "1100 FORT PIERPONT DR",
            "city": "MORGANTOWN",
            "state": "WV",
            "zip": "26508"
        },
        {
            "street_address": "1100 FORT PIERPONT DR STE 101",
            "city": "MORGANTOWN",
            "state": "WV",
            "zip": "26508"
        },
        {
            "street_address": "400 DIVISION ST",
            "city": "CHARLESTON",
            "state": "WV",
            "zip": "25309"
        },
        {
            "street_address": "830 PENNSYLVANIA AVE STE 202",
            "city": "CHARLESTON",
            "state": "WV",
            "zip": "25302"
        },
        {
            "street_address": "1 MEDICAL CENTER DR # 8003",
            "city": "MORGANTOWN",
            "state": "WV",
            "zip": "26506"
        },
        {
            "street_address": "3449 WILKENS AVE STE 101",
            "city": "BALTIMORE",
            "state": "MD",
            "zip": "21229"
        },
        {
            "street_address": "8 ROSE ST",
            "city": "GRAFTON",
            "state": "WV",
            "zip": "26354"
        },
        {
            "street_address": "419 S WASHINGTON ST STE 102",
            "city": "CASPER",
            "state": "WY",
            "zip": "82601"
        },
        {
            "street_address": "419 S WASHINGTON ST",
            "city": "CASPER",
            "state": "WY",
            "zip": "82601"
        },
        {
            "street_address": "191 OVERTHRUST RD",
            "city": "EVANSTON",
            "state": "WY",
            "zip": "82930"
        },
        {
            "street_address": "196 ARROWHEAD DR",
            "city": "EVANSTON",
            "state": "WY",
            "zip": "82930"
        },
        {
            "street_address": "419 S WASHINGTON ST",
            "city": "CASPER",
            "state": "WY",
            "zip": "82601"
        },
        {
            "street_address": "1005 COLLEGE VIEW DR",
            "city": "RIVERTON",
            "state": "WY",
            "zip": "82501"
        },
        {
            "street_address": "1414 W 4TH ST",
            "city": "GILLETTE",
            "state": "WY",
            "zip": "82716"
        },
        {
            "street_address": "500 W BROADWAY ST",
            "city": "MISSOULA",
            "state": "MT",
            "zip": "59802"
        },
        {
            "street_address": "555 E BROADWAY AVE STE 229",
            "city": "JACKSON",
            "state": "WY",
            "zip": "83001"
        },
        {
            "street_address": "5201 YELLOWSTONE RD",
            "city": "CHEYENNE",
            "state": "WY",
            "zip": "82009"
        },
        {
            "street_address": "400 SOUTH 15TH STREET",
            "city": "WORLAND",
            "state": "WY",
            "zip": "82401"
        },
        {
            "street_address": "501 S BURMA AVE",
            "city": "GILLETTE",
            "state": "WY",
            "zip": "82716"
        },
        {
            "street_address": "407 S MEDICAL ARTS CT STE B",
            "city": "GILLETTE",
            "state": "WY",
            "zip": "82716"
        },
        {
            "street_address": "940 E 3RD ST",
            "city": "CASPER",
            "state": "WY",
            "zip": "82601"
        },
        {
            "street_address": "1613 STAMPEDE AVE",
            "city": "CODY",
            "state": "WY",
            "zip": "82414"
        },
        {
            "street_address": "2301 HOUSE AVE",
            "city": "CHEYENNE",
            "state": "WY",
            "zip": "82001"
        },
        {
            "street_address": "5201 YELLOWSTONE RD",
            "city": "CHEYENNE",
            "state": "WY",
            "zip": "82009"
        },
        {
            "street_address": "214 E 23RD ST",
            "city": "CHEYENNE",
            "state": "WY",
            "zip": "82001"
        },
        {
            "street_address": "4017 RAWLINS ST",
            "city": "CHEYENNE",
            "state": "WY",
            "zip": "82001"
        },
        {
            "street_address": "5201 YELLOWSTONE RD",
            "city": "CHEYENNE",
            "state": "WY",
            "zip": "82009"
        },
        {
            "street_address": "PO BOX LBJ",
            "city": "PAGO PAGO",
            "state": "AS",
            "zip": "96799"
        },
        {
            "street_address": "998074. TAFUNA VI.",
            "city": "PAGO PAGO",
            "state": "AS",
            "zip": "96799"
        },
        {
            "street_address": "11155 TURNER DRIVE",
            "city": "PAGO PAGO",
            "state": "AS",
            "zip": "96799"
        },
        {
            "street_address": "96799 TURNER DRIVE",
            "city": "PAGO PAGO",
            "state": "AS",
            "zip": "96799"
        },
        {
            "street_address": "123 TURNER LANE",
            "city": "PAGO PAGO",
            "state": "AS",
            "zip": "96799"
        },
        {
            "street_address": "PO BOX LBJ",
            "city": "PAGO PAGO",
            "state": "AS",
            "zip": "96799"
        },
        {
            "street_address": "PO BOX LBJ",
            "city": "PAGO PAGO",
            "state": "AS",
            "zip": "96799"
        },
        {
            "street_address": "PO BOX LBJ",
            "city": "PAGO PAGO",
            "state": "AS",
            "zip": "96799"
        },
        {
            "street_address": "96799 TURNER DRIVE",
            "city": "PAGO PAGO",
            "state": "AS",
            "zip": "96799"
        },
        {
            "street_address": "123 TURNER DRIVE",
            "city": "PAGO PAGO",
            "state": "AS",
            "zip": "96799"
        },
        {
            "street_address": "96799 TURNER DRIVE",
            "city": "PAGO PAGO",
            "state": "AS",
            "zip": "96799"
        },
        {
            "street_address": "PO BOX LBJ",
            "city": "PAGO PAGO",
            "state": "AS",
            "zip": "96799"
        },
        {
            "street_address": "LANDSTUHL REGIONAL MEDICAL CENTER",
            "city": "APO",
            "state": "AE",
            "zip": "09180"
        },
        {
            "street_address": "LANDSTUHL REGIONAL MEDICAL CENTER",
            "city": "APO",
            "state": "AE",
            "zip": "09180"
        },
        {
            "street_address": "LANDSTUHL REGIONAL MEDICAL CENTER",
            "city": "APO",
            "state": "AE",
            "zip": "09180"
        },
        {
            "street_address": "LANDSTUHL REGIONAL MEDICAL CENTER",
            "city": "LANDSTUHL",
            "state": "GERMANY",
            "zip": "66849"
        },
        {
            "street_address": "U.S. NAVAL HOSPITAL",
            "city": "GRICIGNANO DI AVERSA",
            "state": "CE",
            "zip": "81030"
        },
        {
            "street_address": "CMR 442",
            "city": "APO",
            "state": "AE",
            "zip": "09042"
        },
        {
            "street_address": "U. S. NAVAL HOSPITAL",
            "city": "NAPLES",
            "state": "CAMPANIA",
            "zip": "81030"
        },
        {
            "street_address": "LANDSTUHL REGIONAL MEDICAL CENTER, UNIT 33100",
            "city": "APO",
            "state": "AE",
            "zip": "09180"
        },
        {
            "street_address": "LANDSTUHL REGIONAL MEDICAL CENTER",
            "city": "APO",
            "state": "AE",
            "zip": "09180"
        },
        {
            "street_address": "PSC 819",
            "city": "FPO",
            "state": "AE",
            "zip": "09645"
        },
        {
            "street_address": "PSC 827 BOX 82",
            "city": "FPO",
            "state": "AE",
            "zip": "09617"
        },
        {
            "street_address": "U.S. NAVAL HOSPITAL NAPLES",
            "city": "FPO",
            "state": "AE",
            "zip": "81030"
        },
        {
            "street_address": "DR. HITZELBERGERSTRASSE",
            "city": "LANDSTUHL",
            "state": "RHEINLAND-PFALZ",
            "zip": "66849"
        },
        {
            "street_address": "LANDSTUHL REGIONAL MEDICAL CENTER",
            "city": "APO",
            "state": "AE",
            "zip": "09180"
        },
        {
            "street_address": "BUREAU OF MEDICINE AND SURGERY DETACHMENT JACKSONVILLE",
            "city": "JACKSONVILLE",
            "state": "FL",
            "zip": "32212"
        },
        {
            "street_address": "48TH MED GROUP, BUILDING 932",
            "city": "APO",
            "state": "AE",
            "zip": "09464"
        },
        {
            "street_address": "8TH MEDICAL GROUP BUILDING #932",
            "city": "APO",
            "state": "AE",
            "zip": "09464"
        },
        {
            "street_address": "LANDSTUHL REGIONAL MEDICAL CENTER",
            "city": "APO",
            "state": "AE",
            "zip": "09180"
        },
        {
            "street_address": "LANDSTUHL REGIONAL MEDICAL CENTER",
            "city": "APO",
            "state": "AE",
            "zip": "09180"
        },
        {
            "street_address": "374TH MEDICAL GROUP",
            "city": "APO",
            "state": "AP",
            "zip": "96328"
        },
        {
            "street_address": "BRIAN ALLGOOD ARMY COMMUNIT HOSPITAL",
            "city": "APO",
            "state": "AP",
            "zip": "96205"
        },
        {
            "street_address": "676 FUTENMA",
            "city": "GINOWAN",
            "state": "OKINAWA",
            "zip": "901-2"
        },
        {
            "street_address": "PSC 482",
            "city": "FPO",
            "state": "AP",
            "zip": "96362"
        },
        {
            "street_address": "USS NIMITZ",
            "city": "FPO",
            "state": "AP",
            "zip": "98312"
        },
        {
            "street_address": "51ST MDG",
            "city": "APO",
            "state": "AP",
            "zip": "96278"
        },
        {
            "street_address": "26520 CACTUS AVE",
            "city": "MORENO VALLEY",
            "state": "CA",
            "zip": "92555"
        },
        {
            "street_address": "UNIT 15245",
            "city": "APO",
            "state": "AP",
            "zip": "96271"
        },
        {
            "street_address": "USS NIMITZ",
            "city": "FPO",
            "state": "AP",
            "zip": "96620"
        },
        {
            "street_address": "801 S MILWAUKEE AVE",
            "city": "LIBERTYVILLE",
            "state": "IL",
            "zip": "60048"
        },
        {
            "street_address": "2401 S 31ST ST",
            "city": "TEMPLE",
            "state": "TX",
            "zip": "76508"
        },
        {
            "street_address": "100 BREWSTER BLVD",
            "city": "CAMP LEJEUNE",
            "state": "NC",
            "zip": "28547"
        },
        {
            "street_address": "NAVAL HOSPITAL OKINAWA",
            "city": "FPO",
            "state": "AP",
            "zip": "96362"
        },
        {
            "street_address": "NMRTC OKINAWA, PSC 482",
            "city": "FPO",
            "state": "AP",
            "zip": "96362"
        },
        {
            "street_address": "3551 ROGER BROOKE DR",
            "city": "FORT SAM HOUSTON",
            "state": "TX",
            "zip": "78234"
        },
        {
            "street_address": "BUILDING 99, UNIT 5024",
            "city": "APO",
            "state": "AP",
            "zip": "96319"
        },
        {
            "street_address": "BDAACH/549TH HC",
            "city": "APO",
            "state": "AP",
            "zip": "96271"
        },
        {
            "street_address": "109 CHAPEL VIEW DRIVE",
            "city": "GREENSBURG",
            "state": "PA",
            "zip": "15601"
        },
        {
            "street_address": "374TH MEDICAL GROUP",
            "city": "APO",
            "state": "AP",
            "zip": "96328"
        },
        {
            "street_address": "51 MDG, UNIT 2060",
            "city": "APO",
            "state": "AP",
            "zip": "96278"
        },
        {
            "street_address": "374 MDOS SGOSG",
            "city": "APO",
            "state": "AP",
            "zip": "96328"
        },
        {
            "street_address": "23RD MEDICAL GROUP/SGHC",
            "city": "APO",
            "state": "AA",
            "zip": "31699"
        },
        {
            "street_address": "34800 BOB WILSON DR",
            "city": "SAN DIEGO",
            "state": "CA",
            "zip": "92134"
        },
        {
            "street_address": "300 E HOSPITAL RD., FORT GORDON, GA 30905",
            "city": "APO",
            "state": "AA",
            "zip": "30905"
        },
        {
            "street_address": "TRAVIS AFB, 60 MSGS/SGCQG",
            "city": "APO",
            "state": "AA",
            "zip": "94535"
        },
        {
            "street_address": "BLDG # 50 FARENHOLT AVE",
            "city": "AGANA",
            "state": "GU",
            "zip": "96915"
        },
        {
            "street_address": "171 FARENHOLT AVE",
            "city": "TAMUNING",
            "state": "GU",
            "zip": "96913"
        },
        {
            "street_address": "171 FARENHOLT AVE",
            "city": "TAMUNING",
            "state": "GU",
            "zip": "96913"
        },
        {
            "street_address": "633 GOV CARLOS CAMACHO ROAD",
            "city": "TAMUNING",
            "state": "GU",
            "zip": "86913"
        },
        {
            "street_address": "280 PALE SAN VITORES RD",
            "city": "TAMUNING",
            "state": "GU",
            "zip": "96913"
        },
        {
            "street_address": "1757 ARMY DR",
            "city": "TAMUNING",
            "state": "GU",
            "zip": "96913"
        },
        {
            "street_address": "36500 AURORA DR",
            "city": "SUMMIT",
            "state": "WI",
            "zip": "53066"
        },
        {
            "street_address": "280 PALE SAN VITORES RD",
            "city": "TAMUNING",
            "state": "GU",
            "zip": "96913"
        },
        {
            "street_address": "171 FARENHOLT AVE",
            "city": "TAMUNING",
            "state": "GU",
            "zip": "96913"
        },
        {
            "street_address": "590 SOUTH MARINE CORPS DRIVE",
            "city": "TAMUNING",
            "state": "GU",
            "zip": "96913"
        },
        {
            "street_address": "633 GOV CARLOS CAMACHO ROAD",
            "city": "TAMUNING",
            "state": "GU",
            "zip": "96913"
        },
        {
            "street_address": "280 PALE SAN VITORES RD",
            "city": "TAMUNING",
            "state": "GU",
            "zip": "96913"
        },
        {
            "street_address": "633 GOV CARLOS G CAMACHO RD STE 212",
            "city": "TAMUNING",
            "state": "GU",
            "zip": "96913"
        },
        {
            "street_address": "280 PALE SAN VITORES RD",
            "city": "TAMUNING",
            "state": "GU",
            "zip": "96913"
        },
        {
            "street_address": "GUAM MEDICAL PLAZA 633 GOVERNOR CARLOS CAMACHO ROAD",
            "city": "TAMUNING",
            "state": "GU",
            "zip": "96913"
        },
        {
            "street_address": "BLDG #15 FARENHOLT AVE",
            "city": "AGANA HEIGHTS",
            "state": "GU",
            "zip": "96910"
        },
        {
            "street_address": "590 SOUTH MARINE CORPS DRIVE",
            "city": "TAMUNING",
            "state": "GU",
            "zip": "96913"
        },
        {
            "street_address": "388 YPAO RD",
            "city": "TAMUNING",
            "state": "GU",
            "zip": "96913"
        },
        {
            "street_address": "850 GOV CARLOS G CAMACHO RD",
            "city": "TAMUNING",
            "state": "GU",
            "zip": "96913"
        },
        {
            "street_address": "851 GOVERNOR CARLOS CAMACHO ROAD",
            "city": "TAMUNING",
            "state": "GU",
            "zip": "96913"
        },
        {
            "street_address": "1 LOWER NAVY HILL",
            "city": "SAIPAN",
            "state": "MP",
            "zip": "96950"
        },
        {
            "street_address": "UM CHARLES REGIONAL MEDICAL GROUP",
            "city": "LA PLATA",
            "state": "MP",
            "zip": "20646"
        },
        {
            "street_address": "1515 EL CAMINO REAL STE D",
            "city": "PALO ALTO",
            "state": "CA",
            "zip": "94306"
        },
        {
            "street_address": "MIDDLE ROAD 1 LOWER MARY ROAD",
            "city": "SAIPAN",
            "state": "MP",
            "zip": "96950"
        },
        {
            "street_address": "1 LOWER NAVY HILL",
            "city": "SAIPAN",
            "state": "MP",
            "zip": "96950"
        },
        {
            "street_address": "4500 SUNNY ISLE STE 26B",
            "city": "CHRISTIANSTED",
            "state": "VI",
            "zip": "00820"
        },
        {
            "street_address": "4007 ESTATE DIAMOND RUBY",
            "city": "ST CROIX",
            "state": "VI",
            "zip": "00820"
        },
        {
            "street_address": "1112 KING ST",
            "city": "CHRISTIANSTED",
            "state": "VI",
            "zip": "00820"
        },
        {
            "street_address": "4008 ESTATE DIAMOND RUBY",
            "city": "CHRISTIANSTED",
            "state": "VI",
            "zip": "00820"
        },
        {
            "street_address": "9149 ESTATE THOMAS",
            "city": "ST THOMAS",
            "state": "VI",
            "zip": "00802"
        },
        {
            "street_address": "SCHNEIDER REGIONAL MEDICAL CENTER",
            "city": "9048 SUGAR ESTATE",
            "state": "VI",
            "zip": "00802"
        },
        {
            "street_address": "SUITE 207",
            "city": "ST. THOMAS",
            "state": "VI",
            "zip": "00802"
        },
        {
            "street_address": "4002 RAPHUNE HILL RD STE 4",
            "city": "ST THOMAS",
            "state": "VI",
            "zip": "00802"
        },
        {
            "street_address": "4000 BEESTON HILL MEDICAL CTR STE 11",
            "city": "CHRISTIANSTED",
            "state": "VI",
            "zip": "00820"
        },
        {
            "street_address": "9149 ESTATE THOMAS",
            "city": "ST THOMAS",
            "state": "VI",
            "zip": "00802"
        },
        {
            "street_address": "4007 ESTATE DIAMOND RUBY",
            "city": "CHRISTIANSTED",
            "state": "VI",
            "zip": "00820"
        },
        {
            "street_address": "MEDICAL ARTS COMPLEX",
            "city": "ST. THOMAS",
            "state": "VI",
            "zip": "00802"
        },
        {
            "street_address": "4500 SION FARM",
            "city": "CHRISTIANSTED",
            "state": "VI",
            "zip": "00820"
        },
        {
            "street_address": "118 ESTATE MT WELCOME",
            "city": "GALLOWS BAY CHRISTIANSTED",
            "state": "VI",
            "zip": "00824"
        },
        {
            "street_address": "118 ESTATE MT WELCOME",
            "city": "ST CROIX",
            "state": "VI",
            "zip": "00824"
        },
        {
            "street_address": "9149 ESTATE THOMAS",
            "city": "ST THOMAS",
            "state": "VI",
            "zip": "00802"
        },
        {
            "street_address": "5 ORANGE GROVE",
            "city": "CHRISTIANSTED",
            "state": "VI",
            "zip": "00820"
        },
        {
            "street_address": "5 ORANGE GROVE",
            "city": "CHRISTIANSTED",
            "state": "VI",
            "zip": "00820"
        },
        {
            "street_address": "9149 ESTATE THOMAS STE 308",
            "city": "ST THOMAS",
            "state": "VI",
            "zip": "00802"
        },
        {
            "street_address": "4007 ESTATE DIAMOND RUBY",
            "city": "CHRISTIANSTED",
            "state": "VI",
            "zip": "00820"
        }
    ]
}